"name","sector","drInCharge","address","addressWithUnit","tel","email"
"Centres","","","","","",""
"Ayer Hitam","","","","","",""
"Pusat Dialisis Perbadanan Islam Johor (Ayer Hitam), HD Unit","PRIVATE","MOHD ANDALAS PUTRA BIN MOHAMED ISMAIL;","","","",""
"","","","Pusat Dialisis Perbadanan Islam Johor
(Insist Amilat Sdn Bhd)
No. 17 & 19, Jln Bandar Baru 8
Pusat Bandar Baru Ayer Hitam  86100 Ayer Hitam  Johor Darul Takzim  MALAYSIA","Pusat Dialisis Perbadanan Islam Johor (Ayer Hitam), HD Unit","011-11467893","admin@insistamilat.com.my"
"Bandar Tenggara","","","","","",""
"Pusat Hemodialisis Impian Bandar Tenggara, HD Unit","PRIVATE","AB JABAR BIN ISHAK;","","","",""
"","","","Pusat Hemodialisis Impian Bandar Tenggara
No. 3 & 5 Jalan Impian 1/1,
Taman Desa Impian  81440 Bandar Tenggara  Johor Darul Takzim  MALAYSIA","Pusat Hemodialisis Impian Bandar Tenggara, HD Unit","017-7005181","impianbt.hd@gmail.com"
"Pusat Hemodialisis Nour Hannan, HD Unit","PRIVATE","ABDUL HANAN BIN NAMAT;","","","",""
"","","","Pusat Hemodialisis Nour Hannan
No. 70, 71 & 72, Jalan Anggerik 3/1
Taman Anggerik Tenggara  81440 Bandar Tenggara  Johor Darul Takzim  MALAYSIA","Pusat Hemodialisis Nour Hannan, HD Unit","07-8963411","nourhannanhaemodialisis@gmail.com"
"Batu Pahat","","","","","",""
"Hospital Sultanah Nora Ismail, CAPD Unit","MOH","LIU WEN JIUN;","","","",""
"","","","Hospital Sultanah Nora Ismail
Jalan Kurma  83000 Batu Pahat  Johor Darul Takzim  MALAYSIA","Hospital Sultanah Nora Ismail, CAPD Unit","074363000  3152",""
"Pantai Hospital Batu Pahat, CAPD Unit","PRIVATE","KEE SWEE ANN;","","","",""
"","","","Pantai Hospital Batu Pahat
3rd Floor, CAPD Unit
9S, Jalan Bintang Satu
Taman Koperasi Bahagia  83000 Batu Pahat  Johor Darul Takzim  MALAYSIA","Pantai Hospital Batu Pahat, CAPD Unit","( 07)4338811  3821 /2529",""
"BP Renal Care (Rengit), HD Unit","PRIVATE","EMA JULIATY BINTI JAMALUDDIN;","","","",""
"","","","BP Renal Care (Rengit) Sdn. Bhd
No.12, Jalan Keembong
Taman Rengit  83100 Batu Pahat  Johor Darul Takzim  MALAYSIA","BP Renal Care (Rengit), HD Unit","( 07)4242200","bprenalcarerengit@yahoo.com"
"BP Renal Care Sdn Bhd (Batu Pahat), HD Unit","PRIVATE","KEE SWEE ANN;","","","",""
"","","","BP Renal Care Sdn Bhd (Batu Pahat)
No.5&5A, 6&6A, 7A, Jalan Salang
Taman Nira  83000 Batu Pahat  Johor Darul Takzim  MALAYSIA","BP Renal Care Sdn Bhd (Batu Pahat), HD Unit","017-3653599","bprenalcare@gmail.com"
"Che Eng Khor Centre, HD Unit","NGO","YEK TIEW TIING;","","","",""
"","","","Che Eng Khor Haemodialysis Centre
No 22 & 23, Jalan Susur
Taman Pantai Baru  83000 Batu Pahat  Johor Darul Takzim  MALAYSIA","Che Eng Khor Centre, HD Unit","( 07)4330088","cheengkor@gmail.com"
"Hospital Sultanah Nora Ismail, HD Unit","MOH","LIU WEN JIUN;","","","",""
"","","","Unit Satelit Haemodialisis
Hospital Sultanah Nora Ismail
Jalan Korma  83000 Batu Pahat  Johor Darul Takzim  MALAYSIA","Hospital Sultanah Nora Ismail, HD Unit","( 07)4363000  3152 /3153",""
"KPJ Batu Pahat Specialist Hospital, HD Unit","PRIVATE","KAMARUL ARIFFIN HAMZAH;","","","",""
"","","","KPJ Batu Pahat Specialist Hospital
No.1, Jalan Mutiara Gading 1
Taman Mutiara Gading  83000 Batu Pahat  Johor Darul Takzim  MALAYSIA","KPJ Batu Pahat Specialist Hospital, HD Unit","07-4591000","bpsh@kpjbatupahat.com"
"Pantai Hospital Batu Pahat, HD Unit","PRIVATE","EMA JULIATY BINTI JAMALUDDIN;","","","",""
"","","","Haemodialysis Unit
Pantai Hospital Batu Pahat
95, Jalan Bintang Satu
Taman Koperasi Bahagia  83000 Batu Pahat  Johor Darul Takzim  MALAYSIA","Pantai Hospital Batu Pahat, HD Unit","( 07)4338811  8063",""
"Pusat Dialisis PERKESO (Cawangan Batu Pahat), HD Unit","PRIVATE","JACKY TEIN FUWEN;","","","",""
"","","","Pusat Dialisis PERKESO (Cawangan Batu Pahat)
Aras Bawah, No. 14, 16, 18 & 20 
Jalan Maju Timur, Tman Maju  83000 Batu Pahat  Johor Darul Takzim  MALAYSIA","Pusat Dialisis PERKESO (Cawangan Batu Pahat), HD Unit","014-3894409","ncm.batupahat@nephro.com"
"Pusat Haemodialisis Algazel, HD Unit","PRIVATE","ZULKIFLI BIN TAAT;","","","",""
"","","","Pusat Haemodialisis Algazel
No 1 & 2, Jalan Universiti 2
Taman Universiti
Parit Raja  86400 Batu Pahat  Johor Darul Takzim  MALAYSIA","Pusat Haemodialisis Algazel, HD Unit","07-4541418","hemodialisis.algazel@gmail.com"
"Pusat Haemodialisis Rotary, Batu Pahat, HD Unit","NGO","AHMED KAMAL KHAIRON BIN IBRAHIM;","","","",""
"","","","Pusat Haemodialisis Rotary, Batu Pahat
14 & 16, Jalan Bintang 1
Taman Koperasi Bahagia  83000 Batu Pahat  Johor Darul Takzim  MALAYSIA","Pusat Haemodialisis Rotary, Batu Pahat, HD Unit","( 07)4318885","dialysisrotarybp@gmail.com"
"Pusat Hemodialisis Darul Ta'zim (Batu Pahat), HD Unit","PRIVATE","ZULKIFLI BIN MOHD SHAH;","","","",""
"","","","Pusat Hemodialisis Darul Ta'zim
No. 7, Jalan Bunga Tanjung  83000 Batu Pahat  Johor Darul Takzim  MALAYSIA","Pusat Hemodialisis Darul Ta'zim (Batu Pahat), HD Unit","( 07)4384862","phdtbpt2@gmail.com"
"Pusat Hemodialisis Darul Ta'zim (Parit Raja), HD Unit","PRIVATE","NORULKAMAR BIN SOIN;","","","",""
"","","","Pusat Hemodialisis Darul Ta'zim (Parit Raja)
No. 12 & 14, Jalan Siswa Jaya 1
Medan niaga Siswa Jaya, Parit Raja  86400 Batu Pahat  Johor Darul Takzim  MALAYSIA","Pusat Hemodialisis Darul Ta'zim (Parit Raja), HD Unit","( 07)4541799","phdtparitraja@gmail.com"
"Pusat Hemodialisis Majlis Agama Islam Negeri Johor, HD Unit","PRIVATE","NORULKAMAR BIN SOIN;","","","",""
"","","","Pusat Hemodialisis Majlis Agama Islam Negeri Johor
(Sinar Haemodialysis Sdn Bhd)
Bangunan Wakaf, Jalan Tanah Merah  83000 Batu Pahat  Johor Darul Takzim  MALAYSIA","Pusat Hemodialisis Majlis Agama Islam Negeri Johor, HD Unit","( 07)4335242","sinarmaijclinical@gmail.com"
"Pusat Hemodialisis Sejahtera (Batu Pahat), HD Unit","PRIVATE","AHMED KAMAL KHAIRON BIN IBRAHIM;","","","",""
"","","","Pusat Hemodialisis Sejahtera Sdn Bhd
No. 4 & 5, Jalan Sri Sulong
Taman Sri Sulong Mewah
Parit Sulong  83500 Batu Pahat  Johor Darul Takzim  MALAYSIA","Pusat Hemodialisis Sejahtera (Batu Pahat), HD Unit","07-4185311","sejahterabp@yahoo.com"
"Sinar Haemodialysis (Cawangan Batu Pahat), HD Unit","PRIVATE","FOO SEE FONG;","","","",""
"","","","Sinar Haemodialysis Sdn Bhd  (Cawangan Batu Pahat) 
No. 26 & 28 Jalan Penjaja 3, Kim's Park Business Centre  83000 Batu Pahat  Johor Darul Takzim  MALAYSIA","Sinar Haemodialysis (Cawangan Batu Pahat), HD Unit","( 07)4322691","sinarcawbp@gmail.com"
"Syukur Haemodialysis (Batu Pahat), HD Unit","PRIVATE","HISHAMUDDIN BIN ABDUL RAHMAN;","","","",""
"","","","Syukur Haemodialysis (Batu Pahat)
No. 29, 30 & 30A,
Jalan Komersil Pantai 3A,
Pusat Komersil Pantai  83000 Batu Pahat  Johor Darul Takzim  MALAYSIA","Syukur Haemodialysis (Batu Pahat), HD Unit","014-3548484","syukurhdbp@gmail.com"
"Hospital Sultanah Nora Ismail, Tx Unit","MOH","LIU WEN JIUN;","","","",""
"","","","Renal Transplant Clinic (c/o Haemodialysis  Unit)
Hospital Sultanah Nora Ismail
Jalan Korma  83000 Batu Pahat  Johor Darul Takzim  MALAYSIA","Hospital Sultanah Nora Ismail, Tx Unit","( 07)4363000  3152 /3153",""
"Hospital Sultanah Nora Ismail, MRRB Unit","MOH","LIU WEN JIUN;","","","",""
"","","","Hospital Batu Pahat  83000 Batu Pahat  Johor Darul Takzim  MALAYSIA","Hospital Sultanah Nora Ismail, MRRB Unit","-","-"
"Benut","","","","","",""
"Seri Benut Dialysis, HD Unit","PRIVATE","ABU BAKAR BIN MUHAMMAD;","","","",""
"","","","Seri Benut Dialysis Sdn Bhd
No. 2, Jalan Desa Indah 1
Taman Desa Indah  82200 Benut  Johor Darul Takzim  MALAYSIA","Seri Benut Dialysis, HD Unit","( 07)6906905","seribenutdialysis@gmail.com"
"Bukit Gambir","","","","","",""
"Pusat Hemodialisis Arrraudhah (Gambir), HD Unit","PRIVATE","","","","",""
"","","","Pusat Hemodialisis Arrraudhah (Gambir) Sdn Bhd
No. 23, Jalan Melor
Taman Melor Utama  84800 Bukit Gambir  Johor Darul Takzim  MALAYSIA","Pusat Hemodialisis Arrraudhah (Gambir), HD Unit","018-6660996","arraudhahwecarebg@gmail.com"
"Gelang Patah","","","","","",""
"Pusat Hemodialisis Rahimra, HD Unit","PRIVATE","JUMIAH BINTI SAMID;","","","",""
"","","","Pusat Hemodialisis Rahimra Sdn Bhd
No. 39, 41 & 43, Jalan NIP 2/5
Taman Perindustrian Nusajaya 2  79200 Gelang Patah  Johor Darul Takzim  MALAYSIA","Pusat Hemodialisis Rahimra, HD Unit","( 07)5548800","rahimradialisis43@gmail.com"
"Gemas Baru","","","","","",""
"NSCMH Dialysis Care Cawangan Gemas, HD Unit","NGO","PAUL PARIMANAM A/L SEGAJANTHAM;","","","",""
"","","","NSCMH Dialysis Care Cawangan Gemas
No. 21, Ground Floor, Jalan Orkid 1
Taman Megah  73400 Gemas Baru  Johor Darul Takzim  MALAYSIA","NSCMH Dialysis Care Cawangan Gemas, HD Unit","07-9483039","dialysisgemas@gmail.com"
"Iskandar Puteri","","","","","",""
"Pusat Hemodialisis Anjung Dialysis Centre, HD Unit","PRIVATE","AB SAMAD BIN SAID;","","","",""
"","","","Pusat Hemodialisis Anjung Dialysis Centre
Lot R25, R26, R27 & R28, Ground Floor
Anjung Neighbourhood Centre
No.5 Persiaran Ledang Heights  79250 Iskandar Puteri  Johor Darul Takzim  MALAYSIA","Pusat Hemodialisis Anjung Dialysis Centre, HD Unit","07-5090909","prasarana_teguh@yahoo.com"
"Johor Bahru","","","","","",""
"Johor Specialist Hospital, CAPD Unit","PRIVATE","","","","",""
"","","","Johor Specialist Hospital
39B, Jalan Abdul Samad  80100 Johor Bahru  Johor Darul Takzim  MALAYSIA","Johor Specialist Hospital, CAPD Unit","07-2253000",""
"Puteri Specialist Hospital, CAPD Unit","PRIVATE","AHMAD FAUZI BIN HJ ABDUL RAHMAN;","","","",""
"","","","CAPD Unit / Haemodialysis Unit
Puteri Specialist Hospital
No. 33, Jalan Tun Abdul Razak, Susur 5  80000 Johor Bahru  Johor Darul Takzim  MALAYSIA","Puteri Specialist Hospital, CAPD Unit","( 07)2253222  289","-"
"Sultan Ismail Hospital (Paed), CAPD Unit","MOH","NG WEN YING;","","","",""
"","","","Ward 8C (CAPD Unit)
Hospital Sultan Ismail 
Jalan Persiaran Mutiara Emas Utama
Taman Mount Austin  81100 Johor Bahru  Johor Darul Takzim  MALAYSIA","Sultan Ismail Hospital (Paed), CAPD Unit","( 07)3565000  8304 /8303",""
"Sultan Ismail Hospital, CAPD Unit","MOH","FARIZ BIN NORDIN;","","","",""
"","","","CAPD Unit
Hospital Sultan Ismail 
Jalan Persiaran Mutiara Emas Utama
Taman Mount Austin  81100 Johor Bahru  Johor Darul Takzim  MALAYSIA","Sultan Ismail Hospital, CAPD Unit","07-3565000","hsicapd@gmail.com"
"Sultanah Aminah Hospital, CAPD Unit","MOH","LIU WEN JIUN;","","","",""
"","","","CAPD Unit
Bangunan Siantan
Hospital Sultanah Aminah  80100 Johor Bahru  Johor Darul Takzim  MALAYSIA","Sultanah Aminah Hospital, CAPD Unit","( 07)2231666  4213","-"
"Coop Dialisis, HD Unit","PRIVATE","NAFIZA BINTI MOHAMED;","","","",""
"","","","Coop Dialisis
(Kopris Dialysis Sdn Bhd
No 47 & 49, Jalan Uda Utama 3/14
Bandar Uda Utama  81200 Johor Bahru  Johor Darul Takzim  MALAYSIA","Coop Dialisis, HD Unit","( 07)2342410","kopris_dialysis@yahoo.com.my"
"JJ Lions Dialysis Centre, HD Unit","NGO","KOH CHIN TUAN;","","","",""
"","","","JJ Lions Dialysis Centre
No. 110, 112 & 114, Jalan Bakawali 52
Taman Johor Jaya  81100 Johor Bahru  Johor Darul Takzim  MALAYSIA","JJ Lions Dialysis Centre, HD Unit","( 07)3576233","jjlionsdc@gmail.com"
"Johor Specialist Hospital, HD Unit","PRIVATE","YUDISTHRA A/L M. GANESHADEVA;","","","",""
"","","","Haemodialysis Unit
Johor Specialist Hospital
No. 39-B, Jalan Abdul Samad  80100 Johor Bahru  Johor Darul Takzim  MALAYSIA","Johor Specialist Hospital, HD Unit","07-2253000  193/739","jsh@jsh.kpjhealth.com.my"
"JQA Dialysis Foundation, HD Unit","PRIVATE","NUR BINTI AWAB;","","","",""
"","","","JQA Dialysis Foundation
No.5, Jln Bakawali 48
Taman Johor Jaya  81100 Johor Bahru  Johor Darul Takzim  MALAYSIA","JQA Dialysis Foundation, HD Unit","( 07)3528689","johorquarriesassn@gmail.com"
"KPJ Puteri Specialist Hospital, HD Unit","PRIVATE","AHMAD FAUZI BIN HJ ABDUL RAHMAN;","","","",""
"","","","Haemodialysis Centre
KPJ Puteri Specialist Hospital
No. 33, Jalan Tun Abdul Razak (Susur 5)  80000 Johor Bahru  Johor Darul Takzim  MALAYSIA","KPJ Puteri Specialist Hospital, HD Unit","( 07)2253222  289","-"
"Leo Dialysis Centre, HD Unit","PRIVATE","THAMILSELVI A/P VELAIAH;","","","",""
"","","","Leo Dialysis Centre
No. 40, Jalan Seri Austin 3/55,
Taman Seri Austin,  81100 Johor Bahru  Johor Darul Takzim  MALAYSIA","Leo Dialysis Centre, HD Unit","07-3500715","admin@leodialysiscentre.com"
"Pertubuhan Kebajikan Amitabha, HD Unit","NGO","JUMIAH BINTI SAMID;","","","",""
"","","","Pertubuhan Kebajikan Amitabha
No. 59, Jalan Glasiar
Taman Tasek  80200 Johor Bahru  Johor Darul Takzim  MALAYSIA","Pertubuhan Kebajikan Amitabha, HD Unit","( 07)2380448","jos_mary93@yahoo.com"
"Premier Renal Care, HD Unit","PRIVATE","KAMARUDIN BIN AHMAD;","","","",""
"","","","Premier Renal Care Sdn. Bhd.
No. 40-N, Jalan Kemuncak 1
Taman Nong Chik  80100 Johor Bahru  Johor Darul Takzim  MALAYSIA","Premier Renal Care, HD Unit","( 07)2274596",""
"Pusat Dialisis & Kesihatan Masjid Bandar Baru Uda, HD Unit","NGO","KAMARUDIN BIN AHMAD;","","","",""
"","","","Pusat Dialisis & Kesihatan 
Masjid Bandar Baru Uda
Jalan Padi Ria 1
Bandar Baru Uda  81200 Johor Bahru  Johor Darul Takzim  MALAYSIA","Pusat Dialisis & Kesihatan Masjid Bandar Baru Uda, HD Unit","( 07)2384024","norijahdaiman@yahoo.com"
"Pusat Dialisis Davita Bandar Baru Uda, HD Unit","PRIVATE","LOOK CHONG PHENG;","","","",""
"","","","Pusat Dialisis Davita Bandar Baru Uda
Ground Floor, No 72 & 74 Jalan Padi 1
Bandar Baru Uda  82100 Johor Bahru  Johor Darul Takzim  MALAYSIA","Pusat Dialisis Davita Bandar Baru Uda, HD Unit","07-2396227","Aishah.MohdHari@davita.com"
"Pusat Dialisis Davita Johor Bahru, HD Unit","PRIVATE","CHIN CHEE KHIN;","","","",""
"","","","Pusat Dialisis Davita Johor Bahru
Unit 02-02 & 02-03, Level 2
No. 12, Jalan Ngee Heng
Menara Landmark Mall  80000 Johor Bahru  Johor Darul Takzim  MALAYSIA","Pusat Dialisis Davita Johor Bahru, HD Unit","07-2212128",""
"Pusat Dialisis Davita Taman Seri Setia, HD Unit","PRIVATE","VIKNESWARI A/P RAJA GOBAR;","","","",""
"","","","Pusat Dialisis Davita Taman Seri Setia
117, Jalan Damai
Taman Sri Setia  80300 Johor Bahru  Johor Darul Takzim  MALAYSIA","Pusat Dialisis Davita Taman Seri Setia, HD Unit","07-2220186",""
"Pusat Dialisis FN, HD Unit","PRIVATE","WOON WEE YAN;","","","",""
"","","","Pusat Dialisis FN
No. 26 & 28, Jalan Pulai 22
Taman Pulai Utama  81300 Johor Bahru  Johor Darul Takzim  MALAYSIA","Pusat Dialisis FN, HD Unit","07-5542104","pusatdialisisfn@gmail.com"
"Pusat Dialisis Pelangi Sdn Bhd, HD Unit","PRIVATE","LAW TEIK YEONG;","","","",""
"","","","Pusat Dialisis Pelangi Sdn Bhd
46, 46-01 & 48, 48-01
Jalan Tun Abdul Razak
Susur 1  8000 Johor Bahru  Johor Darul Takzim  MALAYSIA","Pusat Dialisis Pelangi Sdn Bhd, HD Unit","07-2200033","chong.pauyin@gmail.com"
"Pusat Dialisis Perbadanan Islam (Johor Bahru), HD Unit","PRIVATE","AB SAMAD BIN SAID;","","","",""
"","","","Pusat Dialisis Perbadanan Islam
(ICMC Healthcare Sdn Bhd)
G4, G5, & G6, TINGKAT BAWAH , Bangunan Perbadanan Islam
No. 26, Jalan Rebana, Kebun Teh,
TAMAN PERBADANAN ISLAM,  80250 Johor Bahru  Johor Darul Takzim  MALAYSIA","Pusat Dialisis Perbadanan Islam (Johor Bahru), HD Unit","(607)3333500","icmckebunteh@yahoo.com"
"Pusat Dialisis Waqaf An Nur Masjid Taman Bukit Tiram, HD Unit","NGO","MAZUAN BINTI ISMAIL;","","","",""
"","","","Pusat Dialisis Waqaf An Nur Masjid Taman Bukit Tiram
(Waqaf An-nur Corporation Berhad)
Masjid Jamek Al Makmur, Jalan Sri Panti
Taman Bukit Tiram  81800 Johor Bahru  Johor Darul Takzim  MALAYSIA","Pusat Dialisis Waqaf An Nur Masjid Taman Bukit Tiram, HD Unit","( 07)8614102","seharazadv@ymail.com"
"Pusat Dialisis Waqaf An-Nur Galleria @ Kotaraya, HD Unit","NGO","MAZUAN BINTI ISMAIL;","","","",""
"","","","Pusat Dialisis Waqaf An-Nur Galleria @ Kotaraya
(Waqaf An-Nur Corporation Berhad)
L2-16, Tkt 2, Plaza Galleria @ Kotaraya
Jalan Trus  80000 Johor Bahru  Johor Darul Takzim  MALAYSIA","Pusat Dialisis Waqaf An-Nur Galleria @ Kotaraya, HD Unit","( 07)2244788","dialisisgalleria@gmail.com"
"Pusat Hemodialisis Amal Lexin, HD Unit","NGO","ONG JING WEI;","","","",""
"","","","Pusat Hemodialisis Amal Lexin
No. 20, 22, 24 & 26, Jalan Perkasa 5,
Taman Ungku Tun Aminah  81300 Johor Bahru  Johor Darul Takzim  MALAYSIA","Pusat Hemodialisis Amal Lexin, HD Unit","07-5544343","amallexin@yahoo.com"
"Pusat Hemodialisis Cemerlang, HD Unit","PRIVATE","MOHAMAD FADRI BIN ABDULLAH @ HARUN;","","","",""
"","","","Pusat Hemodialisis Cemerlang
7, 7-01, 9 Jalan Mutiara Emas 2/4,
Taman Mount Austin  81100 Johor Bahru  Johor Darul Takzim  MALAYSIA","Pusat Hemodialisis Cemerlang, HD Unit","07-3518157","phdcemerlang@gmail.com"
"Pusat Hemodialisis MAIJ, HD Unit","PRIVATE","AZIZAH BINTI ABD HAMID;","","","",""
"","","","Pusat Hemodialisis MAIJ
Tingkat Bawah Bangunan Wakaf Johor
Batu 6, Jalan Skudai  81200 Johor Bahru  Johor Darul Takzim  MALAYSIA","Pusat Hemodialisis MAIJ, HD Unit","( 07)2353370","1@maij.gov.my"
"Pusat Rawatan Dialisis Pusat Dialisis Amal JB Lions Charity Dialysis Centre MAAEDICARE (1), HD Unit","NGO","ERMAN SYAH BIN ABDUL HAMID;","","","",""
"","","","Pusat Rawatan Dialisis Pusat Dialisis Amal JB Lions Charity Dialysis Centre MAAEDICARE (1)
No. 5 & 7, Jalan Perisai
Taman Sri Tebrau  80050 Johor Bahru  Johor Darul Takzim  MALAYSIA","Pusat Rawatan Dialisis Pusat Dialisis Amal JB Lions Charity Dialysis Centre MAAEDICARE (1), HD Unit","(016)7230233","jb1@maamedicare.org"
"Pusat Rawatan Dialisis Pusat Dialisis Amal JB Lions Charity Dialysis Centre MAAEDICARE (2), HD Unit","NGO","LIM JIN LING;","","","",""
"","","","Pusat Rawatan Dialisis Pusat Dialisis Amal JB Lions Charity Dialysis Centre MAAEDICARE (2)
No. 5, 5A & 7, Jalan Baiduri 1
Taman Baiduri  81200 Johor Bahru  Johor Darul Takzim  MALAYSIA","Pusat Rawatan Dialisis Pusat Dialisis Amal JB Lions Charity Dialysis Centre MAAEDICARE (2), HD Unit","(016)7230255","jb2@maamedicare.org"
"Rotary Club of Johor Bahru Haemodialysis Centre, HD Unit","NGO","","","","",""
"","","","Rotary Club of Johor Bahru Haemodialysis Centre Berhad
No. 4N, Susur 3, Jalan Tun Abdul Razak  80200 Johor Bahru  Johor Darul Takzim  MALAYSIA","Rotary Club of Johor Bahru Haemodialysis Centre, HD Unit","( 07)2222433  108","rcjbhcb@gmail.com"
"Sultan Ismail Hospital (Paed), HD Unit","MOH","NG WEN YING;","","","",""
"","","","Ward 8C  (Haemodialysis Unit)
Hospital Sultan Ismail 
Jalan Persiaran Mutiara Emas Utama
Taman Mount Austin  81100 Johor Bahru  Johor Darul Takzim  MALAYSIA","Sultan Ismail Hospital (Paed), HD Unit","( 07)3565000  8303 /8304","-"
"Sultan Ismail Hospital, HD Unit","MOH","","","","",""
"","","","Haemodialysis Unit
Hospital Sultan Ismail 
Jalan Persiaran Mutiara Emas Utama
Taman Mount Austin  81100 Johor Bahru  Johor Darul Takzim  MALAYSIA","Sultan Ismail Hospital, HD Unit","( 07)3565000  3503","Halmijais060983@gmail.com"
"Sultanah Aminah Hospital, HD Unit","MOH","LIU WEN JIUN;","","","",""
"","","","Haemodialysis Unit
Bangunan Bakawali
Hospital Sultanah Aminah  80100 Johor Bahru  Johor Darul Takzim  MALAYSIA","Sultanah Aminah Hospital, HD Unit","( 07)2231666  2055","dbakawali@yahoo.com.my"
"Sultan Ismail Hospital (Paed), Tx Unit","MOH","SUSAN PEE;","","","",""
"","","","Ward 8 C (Renal Transplant Clinic (Paed)) 
Hospital Sultan Ismail 
Jalan Persiaran Mutiara Emas Utama
Taman Mount Austin  81100 Johor Bahru  Johor Darul Takzim  MALAYSIA","Sultan Ismail Hospital (Paed), Tx Unit","( 07)3565000  8303 /8304",""
"Sultan Ismail Pandan Hospital, Tx Unit","MOH","","","","",""
"","","","Renal Transplant Clinic 
c/o Haemodialysis Unit
Sultan Ismail Pandan Hospital
Jalan Persiaran Mutiara Emas Utama
Taman Mount Austin  81100 Johor Bahru  Johor Darul Takzim  MALAYSIA","Sultan Ismail Pandan Hospital, Tx Unit","( 07)3565000  3508 /3509",""
"Sultanah Aminah Hospital, Tx Unit","MOH","LIU WEN JIUN;","","","",""
"","","","Renal Transplant Clinic
Hospital Sultanah Aminah  80100 Johor Bahru  Johor Darul Takzim  MALAYSIA","Sultanah Aminah Hospital, Tx Unit","( 07)2257000  2055","dbakawali@yahoo.com.my"
"Puteri Specialist Hospital, MRRB Unit","PRIVATE","AHMAD FAUZI BIN HJ ABDUL RAHMAN;","","","",""
"","","","Puteri Specialist Hospital
33, Jalan Tun Abdul Razak (Susur 5)  80350 Johor Bahru  Johor Darul Takzim  MALAYSIA","Puteri Specialist Hospital, MRRB Unit","( 07)2233377  273",""
"Sultan Ismail Hospital (Paed), MRRB Unit","MOH","NG WEN YING;","","","",""
"","","","c/o Ward 8 C & D
Hospital Sultan Ismail 
Jalan Persiaran Mutiara Emas Utama
Taman Mount Austin  81100 Johor Bahru  Johor Darul Takzim  MALAYSIA","Sultan Ismail Hospital (Paed), MRRB Unit","( 07)3565000",""
"Sultan Ismail Hospital, MRRB Unit","MOH","FARIZ BIN NORDIN;","","","",""
"","","","Hospital Sultan Ismail 
Jalan Persiaran Mutiara Emas Utama
Taman Mount Austin  81100 Johor Bahru  Johor Darul Takzim  MALAYSIA","Sultan Ismail Hospital, MRRB Unit","07-3565000  3508/3502","Dr FARIZ BIN NORDIN"
"Sultanah Aminah Hospital, MRRB Unit","MOH","LIU WEN JIUN;","","","",""
"","","","Department of Medicine
Hospital Sultanah Aminah  80100 Johor Bahru  Johor Darul Takzim  MALAYSIA","Sultanah Aminah Hospital, MRRB Unit","( 07)2257000  2301","-"
"Johor Bharu","","","","","",""
"Columbia Asia Hospital, HD Unit","PRIVATE","TEE SHIN KUAN;","","","",""
"","","","Columbia Asia Hospital
Persiaran Southkey 5
Kota Southkey  80150 Johor Bharu  Johor Darul Takzim  MALAYSIA","Columbia Asia Hospital, HD Unit","07-27299999  1044/1045",""
"Pusat Dialisis Hariz, HD Unit","PRIVATE","ABDUL KADIR JAILANI B DUSEH;","","","",""
"","","","Pusat Dialisis Hariz
No.86, 86-01, 86-02, Jalan Adda 7
Adda Heights  81100 Johor Bharu  Johor Darul Takzim  MALAYSIA","Pusat Dialisis Hariz, HD Unit","011-11294676","harizdialysis@gmail.com"
"Kahang","","","","","",""
"BP Renalcare (Kahang) Sdn Bhd, HD Unit","PRIVATE","LOKE WING KIT;","","","",""
"","","","BP Renalcare (Kahang) Sdn Bhd
No.3, Jalan Ria 1
Taman Ria  86700 Kahang  Johor Darul Takzim  MALAYSIA","BP Renalcare (Kahang) Sdn Bhd, HD Unit","07-7883500","bprenalcare@gmail.com"
"Kangkar Pulai","","","","","",""
"Pusat Hemodialisis Sinar Kangkar Pulai, HD Unit","PRIVATE","DAISY LING LEONG KEENG;","","","",""
"","","","Pusat Hemodialisis Sinar Kangkar Pulai
No. 24, 24-1 & 26, 26-1, Jalan Hijauan 2
Taman Pulai Hijauan  81110 Kangkar Pulai  Johor Darul Takzim  MALAYSIA","Pusat Hemodialisis Sinar Kangkar Pulai, HD Unit","07-5863344","sinar.kangkarpulai@sinarhdu.com"
"Kluang","","","","","",""
"BP Renal Care (Kluang), HD Unit","PRIVATE","LOKE WING KIT;","","","",""
"","","","BP Renal Care (Kluang) Sdn Bhd
No. 7, Susur 1, Off Jalan Johor Tenggara  86000 Kluang  Johor Darul Takzim  MALAYSIA","BP Renal Care (Kluang), HD Unit","077728195","bprckluang@gmail.my"
"Hospital Enche' Besar Hajjah Khalsom, HD Unit","MOH","LIU WEN JIUN;","","","",""
"","","","Haemodialysis Unit
Hospital Enche' Besar Hajjah Khalsom
KM 5, Jalan Kota Tinggi  86000 Kluang  Johor Darul Takzim  MALAYSIA","Hospital Enche' Besar Hajjah Khalsom, HD Unit","( 07)7787000  1262 /1269","mohdfauzi.asri@yahoo.com"
"KPJ Hemodialysis Kluang, HD Unit","PRIVATE","AZHARI BIN MD YATIM;","","","",""
"","","","KPJ Hemodialysis Kluang
Tingkat 2, No.11
Susur 1, Jalan Besar  86000 Kluang  Johor Darul Takzim  MALAYSIA","KPJ Hemodialysis Kluang, HD Unit","07-7713900","kush@kpjkluang.com"
"Persatuan Membaiki Akhlak-Che Luan Khor_NKF, HD Unit","NGO","HARRIS FADZILIAH BIN HJ ABDUL HAMID;","","","",""
"","","","Pusat Hemodialisis 
Persatuan Membaiki Akhlak Che Luan Khor_NKF
No. 6, Jalan Lintang  86000 Kluang  Johor Darul Takzim  MALAYSIA","Persatuan Membaiki Akhlak-Che Luan Khor_NKF, HD Unit","( 07)7765313","jb2_nkf@yahoo.com"
"Prima Dialisis Kluang, HD Unit","PRIVATE","HARRIS FADZILIAH BIN HJ ABDUL HAMID;","","","",""
"","","","Prima Dialisis Kluang
No. 8 & 10, Jalan Persiaran Idaman
Taman Idaman  86000 Kluang  Johor Darul Takzim  MALAYSIA","Prima Dialisis Kluang, HD Unit","(012)7016121","primadialysis@gmail.com"
"Pusat Dialisis PERKESO (Cawangan Kluang), HD Unit","PRIVATE","FAUZI BIN WAHAB;","","","",""
"","","","Pusat Dialisis PERKESO (Cawangan Kluang)
LOT 58, 59, 60, 61 , 62, 63 & 63-1
Jalan Seri Impian 8/1B
Bandar Seri Impian  86000 Kluang  Johor Darul Takzim  MALAYSIA","Pusat Dialisis PERKESO (Cawangan Kluang), HD Unit","012-7960940","ncm.kluang@nephro.com.my"
"Pusat Hemodialisis BH Dialysis Centre Sdn Bhd, HD Unit","PRIVATE","AZHARI BIN MD YATIM;","","","",""
"","","","Pusat Hemodialisis BH Dialysis Centre Sdn Bhd
No. 76, 77 Dan 77-01, Jalan Kluang Perdana 1
Taman Kluang Perdana  86000 Kluang  Johor Darul Takzim  MALAYSIA","Pusat Hemodialisis BH Dialysis Centre Sdn Bhd, HD Unit","07-7392006","bhdialysiscentresb@gmail.com"
"Pusat Hemodialisis Impian Kluang, HD Unit","PRIVATE","FARAHDIZA BINTI BUANG;","","","",""
"","","","Pusat Hemodialisis Impian (Kluang)
(Comfort Hemodialysis Centre Sdn Bhd)
No. 57, Tkt Bawah, Jalan Sekolah Chong Hwa  86000 Kluang  Johor Darul Takzim  MALAYSIA","Pusat Hemodialisis Impian Kluang, HD Unit","( 07)7718088","impian.kluang@gmail.com"
"Yayasan Rotary Kluang, HD Unit","NGO","TEOW KING FOK;","","","",""
"","","","Yayasan Rotary Kluang HD Centre
C/o Yayasan Rotary Kluang
No. 3, 4 & 5  Jalan 1/13
Taman Sri Kluang  86000 Kluang  Johor Darul Takzim  MALAYSIA","Yayasan Rotary Kluang, HD Unit","( 07)7733211",""
"Hospital Enche' Besar Hajjah Khalsom, Tx Unit","MOH","LIU WEN JIUN;","","","",""
"","","","Renal Transplant Clinic (c/o Haemodialysis Unit)
Hospital Enche' Besar Hajjah Khalsom
KM5, Jalan Kota Tinggi  86000 Kluang  Johor Darul Takzim  MALAYSIA","Hospital Enche' Besar Hajjah Khalsom, Tx Unit","( 07)7787000  1269 /1262","mohdfauzi.asri@yahoo.com"
"Kota Tinggi","","","","","",""
"Klinik Kesihatan Bandar Mas, HD Unit","MOH","LIU WEN JIUN;","","","",""
"","","","Klinik Kesihatan Bandar Mas  81900 Kota Tinggi  Johor Darul Takzim  MALAYSIA","Klinik Kesihatan Bandar Mas, HD Unit","( 07)8235344","norlie_76@yahoo.com"
"Kota Tinggi Hospital, HD Unit","MOH","LIU WEN JIUN;","","","",""
"","","","Haemodialysis Unit
Kota Tinggi Hospital
Jalan Tun Habab  81900 Kota Tinggi  Johor Darul Takzim  MALAYSIA","Kota Tinggi Hospital, HD Unit","( 07)8831131  246","-"
"Pusat Dialisis Davita Kota Tinggi, HD Unit","PRIVATE","NUR BINTI AWAB;","","","",""
"","","","Pusat Dialisis Davita Kota Tinggi
No. 20 & 22, Jalan SS/1
Taman Sri Saujana  81900 Kota Tinggi  Johor Darul Takzim  MALAYSIA","Pusat Dialisis Davita Kota Tinggi, HD Unit","07-8823159",""
"Pusat Dialisis Ikhlas, HD Unit","PRIVATE","MOHAMAD AFIQ BIN GHAZALI;","","","",""
"","","","Pusat Dialisis Ikhlas
No. 21, 23, 25 & 27, Jalan Berlian Utama 2
Taman Daiman Jaya  81900 Kota Tinggi  Johor Darul Takzim  MALAYSIA","Pusat Dialisis Ikhlas, HD Unit","07-8821576","dialysisikhlas@yahoo.com.my"
"Pusat Dialisis Muafakat, HD Unit","PRIVATE","AB SAMAD BIN SAID;","","","",""
"","","","Pusat Dialisis Muafakat
Wisma LYAZ, Jalan Durian
Felda Linggiu  81900 Kota Tinggi  Johor Darul Takzim  MALAYSIA","Pusat Dialisis Muafakat, HD Unit","07-8905575","lyazhealthcare575@gmail.com"
"Pusat Dialisis Murni, HD Unit","PRIVATE","AZIZAH BINTI ABD HAMID;","","","",""
"","","","Pusat Dialisis Murni Sdn Bhd
No. 2, Jalan Dato Onn
Bandar Penawar  81930 Kota Tinggi  Johor Darul Takzim  MALAYSIA","Pusat Dialisis Murni, HD Unit","( 07)8221666","hdmurni@gmail.com"
"Pusat Dialisis Nephrocare (Cawangan Bandar Penawar), HD Unit","PRIVATE","MUHAMMAD UWAIS AL QORNI BIN ABDUL RAHMAN;","","","",""
"","","","Pusat Dialisis Nephrocare (Cawangan Bandar Penawar)
No 38, 39 & 40, Jalan Dato Jaafar 24
Taman Mutiara Desaru
Bandar Penawar  81390 Kota Tinggi  Johor Darul Takzim  MALAYSIA","Pusat Dialisis Nephrocare (Cawangan Bandar Penawar), HD Unit","07-8222161","ncm.bandarpenawar@nephro.com.my"
"Pusat Rawatan Perbadanan Islam (Kota Tinggi), HD Unit","PRIVATE","AB SAMAD BIN SAID;","","","",""
"","","","Pusat Dialysis Perbadanan Islam (Kota Tinggi)
No. 95, Tingkat Bawah, Batu 1, 
Jalan Tun Sri Lanang  81900 Kota Tinggi  Johor Darul Takzim  MALAYSIA","Pusat Rawatan Perbadanan Islam (Kota Tinggi), HD Unit","( 07)8828500","icmcktinggi@yahoo.com.my"
"Rotary Club of Kota Tinggi (2019)-Hemodialisis Centre, HD Unit","NGO","SINGARAVELOO A/L MUTHUSAMY;","","","",""
"","","","Rotary Club of Kota Tinggi (2002)-Hemodialisis Centre
No. 16, Jalan Kemajuan
Kawasan Perindustrian  81900 Kota Tinggi  Johor Darul Takzim  MALAYSIA","Rotary Club of Kota Tinggi (2019)-Hemodialisis Centre, HD Unit","( 07)8834646","rotaryclubofkotatinggi@gmail.com"
"Kulai","","","","","",""
"AD Dhouha Haemodialysis Centre, HD Unit","PRIVATE","ABDUL HANAN BIN NAMAT;","","","",""
"","","","AD Dhouha Haemodialysis Centre Sdn Bhd
No. 342 & 343, Jalan Scientex 10
Taman Scientex  81000 Kulai  Johor Darul Takzim  MALAYSIA","AD Dhouha Haemodialysis Centre, HD Unit","(016)7016742","addhouhahaemodialysis@gmail.com"
"Prima Dialisis Lagenda Putra, HD Unit","PRIVATE","MOHD FARID BIN ABU SAMAH;","","","",""
"","","","Prima Dialisis Lagenda Putra
No. 1372 & 1373, Jalan Lagenda 49
Taman Lagenda Putra  81000 Kulai  Johor Darul Takzim  MALAYSIA","Prima Dialisis Lagenda Putra, HD Unit","( 07)6626550","lagendaputra1372@gmail.com"
"Pusat Dialisis Ceria Indahpura, HD Unit","PRIVATE","JOCELYNN TIAN LI CHIEH;","","","",""
"","","","Pusat Dialisis Ceria Indahpura
No. 104, 104A & 105, Jalan Kiambang 5
Pusat Komersial Indah
Bandar Indahpura  81000 Kulai  Johor Darul Takzim  MALAYSIA","Pusat Dialisis Ceria Indahpura, HD Unit","017-9863978","pusatdialisisceria@gmail.com"
"Pusat Hemodialisis Al Falah Haemodialysis Centre Sdn Bhd, HD Unit","PRIVATE","NAFIZA BINTI MOHAMED;","","","",""
"","","","Pusat Hemodialisis Al Falah Haemodialysis Centre Sdn Bhd
No. 9 & 9A Dan 10 & 10A
Jalan Mas 1, Taman Desamas  81000 Kulai  Johor Darul Takzim  MALAYSIA","Pusat Hemodialisis Al Falah Haemodialysis Centre Sdn Bhd, HD Unit","013-9844230","alfalahhaemodialysiscentre@gmail.com"
"Pusat Hemodialisis Nour, HD Unit","PRIVATE","ABDUL HANAN BIN NAMAT;","","","",""
"","","","Pusat Hemodialisis Nour Sdn Bhd
No. 355G  & 356G, Jalan Kenanga 29/9
Bandar Indahpura  81000 Kulai  Johor Darul Takzim  MALAYSIA","Pusat Hemodialisis Nour, HD Unit","( 07)6631258","haemodialisisnour@gmail.com"
"Kulai Jaya","","","","","",""
"Temenggong Seri Maharaja Tun Ibrahim Hospital, HD Unit","MOH","LIU WEN JIUN;","","","",""
"","","","Haemodialysis Unit
Hospital Temenggong Seri Maharaja Tun Ibrahim  81000 Kulai Jaya  Johor Darul Takzim  MALAYSIA","Temenggong Seri Maharaja Tun Ibrahim Hospital, HD Unit","( 07)6623333  263 / 262",""
"Labis","","","","","",""
"Pertubuhan Hemodialisis Muhibbah Segamat (Labis), HD Unit","NGO","SOON KIEN EE;","","","",""
"","","","Pertubuhan Hemodialisis Muhibbah Segamat (Cawangan Labis)
No 13, 14, 15 & 16, Jalan Indah 1
Taman Indah  85300 Labis  Johor Darul Takzim  MALAYSIA","Pertubuhan Hemodialisis Muhibbah Segamat (Labis), HD Unit","( 07)9254800","muhibbahlabis@gmail.com"
"Pusat Rawatan Dialisis Perdana, HD Unit","PRIVATE","BANI BIN MAHMOOD @ ABU;","","","",""
"","","","Pusat Rawatan Dialisis Perdana
No.20 & 21, Tingkat Bawah
Jalan Maju Jaya 1
Taman Maju Jaya 2  85300 Labis  Johor Darul Takzim  MALAYSIA","Pusat Rawatan Dialisis Perdana, HD Unit","07-9251912","perdanadialisis@gmail.com"
"Ledang","","","","","",""
"Pusat Dialisis Nephrocare (Cawangan Bukit Gambir), HD Unit","PRIVATE","AZMIL BIN ATIMAN;","","","",""
"","","","No. 175 & 176, Jalan Bukit Gambir 8/1
Bandar Baru Bukit Gambir  84800 Ledang  Johor Darul Takzim  MALAYSIA","Pusat Dialisis Nephrocare (Cawangan Bukit Gambir), HD Unit","019-6378675","corporate@nephro.com.my"
"Masai","","","","","",""
"Prima Dialysis Masai, HD Unit","PRIVATE","MOHD FARID BIN ABU SAMAH;","","","",""
"","","","Prima Dialysis Masai
(Explorich Sdn Bhd)
No. 17 & 19 & 19-01, Jalan Masai Utama 2
Taman Masai Utama  81750 Masai  Johor Darul Takzim  MALAYSIA","Prima Dialysis Masai, HD Unit","( 07)2541688","primadialysis80@gmail.com"
"Pusat Dialisis NKF-Yayasan Pembangunan Keluarga Darul Ta'zim, HD Unit","NGO","CHEONG WAI SENG;","","","",""
"","","","Pusat Dialisis NKF-Yayasan Pembangunan Keluarga Darul Ta'zim
No. 4 & 6, Jalan 3/17
Bandar Permas Jaya  81750 Masai  Johor Darul Takzim  MALAYSIA","Pusat Dialisis NKF-Yayasan Pembangunan Keluarga Darul Ta'zim, HD Unit","( 07)3866164","jh1_nkf@yahoo.com"
"Pusat Dialisis Perbadanan Islam Johor (Taman Rinting), HD Unit","PRIVATE","ERMAN SYAH BIN ABDUL HAMID;","","","",""
"","","","Pusat Dialisis Perbadanan Islam Johor (PIJ)
Cawangan Taman Rinting
No. 41, Jalan Sena 1
Taman Rinting  81750 Masai  Johor Darul Takzim  MALAYSIA","Pusat Dialisis Perbadanan Islam Johor (Taman Rinting), HD Unit","07-2513111","-"
"Regency Specialist Hospital, HD Unit","PRIVATE","YAW CHONG HWA;","","","",""
"","","","Regency Specialist Hospital
No.1, Jln Suria
Bandar Seri Alam  81750 Masai  Johor Darul Takzim  MALAYSIA","Regency Specialist Hospital, HD Unit","(607)3817700","-"
"Mersing","","","","","",""
"Mersing Hospital, HD Unit","MOH","LIU WEN JIUN;","","","",""
"","","","Haemodialysis Unit
Hospital Mersing
Jalan Ismail  86800 Mersing  Johor Darul Takzim  MALAYSIA","Mersing Hospital, HD Unit","( 07)7993333  1065","yusof.abdkarim@yahoo.com"
"Mersing Rotary Haemodialysis Centre, HD Unit","NGO","LAI CHIN LAI;","","","",""
"","","","Mersing Rotary Haemodialysis Centre
No. 90, Jalan Merdeka
Mersing Kecil  86800 Mersing  Johor Darul Takzim  MALAYSIA","Mersing Rotary Haemodialysis Centre, HD Unit","( 07)7992932","mrhcmersing@yahoo.com.my"
"Pusat Dialisis Perbadanan Islam Mersing, HD Unit","PRIVATE","AB SAMAD BIN SAID;","","","",""
"","","","Pusat Dialisis Perbadanan Islam Mersing
No. 45, Jalan Jeti
Bandar Tepian Sungai  86800 Mersing  Johor Darul Takzim  MALAYSIA","Pusat Dialisis Perbadanan Islam Mersing, HD Unit","( 07)7991500","icmcmrsg@yahoo.com"
"Pusat Hemodialisis Ar Rahmah Sendirian Berhad, HD Unit","PRIVATE","RABIATUL ADAWIAH BINTI SULAIMAN;","","","",""
"","","","Pusat Hemodialisis Ar Rahmah Sendirian Berhad
No. 3 & 5, Taman Nilam  86800 Mersing  Johor Darul Takzim  MALAYSIA","Pusat Hemodialisis Ar Rahmah Sendirian Berhad, HD Unit","07-7995050",""
"Mersing Hospital, Tx Unit","MOH","LIU WEN JIUN;","","","",""
"","","","Renal Transplant Clinic (c/o Haemodialysis Unit)
Hospital Mersing
Jalan Ismail  86800 Mersing  Johor Darul Takzim  MALAYSIA","Mersing Hospital, Tx Unit","( 07)7993333  1065","-"
"Muar","","","","","",""
"Hospital Pakar Sultanah Fatimah (Muar), CAPD Unit","MOH","LIU WEN JIUN;","","","",""
"","","","CAPD Unit
Hospital Pakar Sultanah Fatimah Muar
Jalan Salleh  84000 Muar  Johor Darul Takzim  MALAYSIA","Hospital Pakar Sultanah Fatimah (Muar), CAPD Unit","06-9564000  203","muarcapd@gmail.com"
"Hospital Pakar Sultanah Fatimah (Muar), HD Unit","MOH","LIU WEN JIUN;","","","",""
"","","","Haemodialysis Unit
Hospital Pakar Sultanah Fatimah Muar
Jalan Salleh  84000 Muar  Johor Darul Takzim  MALAYSIA","Hospital Pakar Sultanah Fatimah (Muar), HD Unit","06-9564000  164","hemohpsf@gmail.com"
"KPJ Bandar Maharani Specialist Hospital, HD Unit","PRIVATE","YIA @ YEOW HUA JERN;","","","",""
"","","","Haemodialysis Unit
KPJ Bandar Maharani Specialist Hospital
73-1, Jalan Stadium  84000 Muar  Johor Darul Takzim  MALAYSIA","KPJ Bandar Maharani Specialist Hospital, HD Unit","( 06)9564500  3002",""
"Muar Dialysis, HD Unit","PRIVATE","LOO HOU CHAN;","","","",""
"","","","Muar Dialysis Sdn Bhd
No. 6, 7 & 8, Taman Temiang Jaya
Jalan Kim Kee  84000 Muar  Johor Darul Takzim  MALAYSIA","Muar Dialysis, HD Unit","( 06)9556341","mdsb72@yahoo.com"
"Muar Lions Renal Centre, HD Unit","NGO","WONG PIK WEE;","","","",""
"","","","Muar Lions Renal Centre
No. 1-7 & 1-9, Jalan Indah 2/1
Taman Indah, Jalan Hj Abdullah  84000 Muar  Johor Darul Takzim  MALAYSIA","Muar Lions Renal Centre, HD Unit","( 06)9535122","mlrc_308b1@yahoo.com"
"Pusat Hemodialisis Hidayah, HD Unit","PRIVATE","KAMARIAH BINTI HASSAN;","","","",""
"","","","Pusat Hemodialisis Hidayah Sdn Bhd
No. 17-18, Jalan Damai
Taman Damai Sungai Abong  84000 Muar  Johor Darul Takzim  MALAYSIA","Pusat Hemodialisis Hidayah, HD Unit","06-9100084","phhmuar@gmail.com"
"Pusat Hemodialisis Pagoh, HD Unit","PRIVATE","RASHIDAH BINTI ABU SAID;","","","",""
"","","","Pusat Hemodialisis Pagoh
No. 67 &69, Jalan Pagoh Jaya 1, 
Pusat Perniagaan Pagoh Jaya  84500 Muar  Johor Darul Takzim  MALAYSIA","Pusat Hemodialisis Pagoh, HD Unit","06-9747258","sfprocare@gmail.com"
"Pusat Hemodialisis Sejahtera (Parit Jawa), HD Unit","PRIVATE","NURUL AKMAL BINTI ADNAN;","","","",""
"","","","Pusat Hemodialisis Sejahtera (Parit Jawa) Sdn Bhd
No. Pintu 5 & 7, Tingkat Bawah, Jalan Seroja 1/1
Taman Seroja  84150 Muar  Johor Darul Takzim  MALAYSIA","Pusat Hemodialisis Sejahtera (Parit Jawa), HD Unit","(06)9875111","phs_paritjawa@yahoo.com"
"Pusat Hemodialisis Sejahtera Muar, HD Unit","PRIVATE","HISHAMUDDIN BIN ABDUL RAHMAN;","","","",""
"","","","Pusat Hemodialisis Sejahtera Muar Sdn Bhd
1-3 & 1-4, Tingkat Bawah, Jalan Ismail  84000 Muar  Johor Darul Takzim  MALAYSIA","Pusat Hemodialisis Sejahtera Muar, HD Unit","( 06)9531761","sejahtera.muar@gmail.com"
"Pusat Hemodialisis Suria (Muar), HD Unit","PRIVATE","MOHD RAIHAN BIN OMAR;","","","",""
"","","","Pusat Hemodialisis Suria (Muar)
No. 19 & 21, Pusat Perniagaan Sulaiman
Jalan Sulaiman  84000 Muar  Johor Darul Takzim  MALAYSIA","Pusat Hemodialisis Suria (Muar), HD Unit","012-2183481","-"
"Syukur Haemodialysis (Bakri), HD Unit","PRIVATE","HISHAMUDDIN BIN ABDUL RAHMAN;","","","",""
"","","","Syukur Haemodialysis (Bakri)
No. 23, 25 & 25, Tingkat Satu, Jalan Sinar Bakri 2
Pusat Perniagaan Sinar Bakri, Jalan Bakri
Bukit Bakri  84200 Muar  Johor Darul Takzim  MALAYSIA","Syukur Haemodialysis (Bakri), HD Unit","011-11323436","syukurhdbakri@gmail.com"
"Syukur Haemodialysis Semerah, HD Unit","PRIVATE","EMA JULIATY BINTI JAMALUDDIN;","","","",""
"","","","Syukur Haemodialysis Semerah
No.18 & 18A, Jalan Pekan Baru 1
Pusat Perniagaan Parit Yusof  84000 Muar  Johor Darul Takzim  MALAYSIA","Syukur Haemodialysis Semerah, HD Unit","014-3548484","semerahsyukurhd@gmail.com"
"Total Kidney Care Haemodialysis, HD Unit","PRIVATE","LOO HOU CHAN;","","","",""
"","","","Total Kidney Care Haemodialysis Sdn Bhd
No. 19 & 21, Tingkat bawah, Jalan Bukit
Taman Treh 2, Jalan Bakariah Bukit Treh  84000 Muar  Johor Darul Takzim  MALAYSIA","Total Kidney Care Haemodialysis, HD Unit","( 06)9534229","t.kidneycare@gmail.com"
"Hospital Pakar Sultanah Fatimah (Muar), Tx Unit","MOH","LIU WEN JIUN;","","","",""
"","","","Renal Transplant Clinic (c/o Haemodialysis Unit)
Hospital Pakar Sultanah Fatimah Muar
Jalan Salleh  84000 Muar  Johor Darul Takzim  MALAYSIA","Hospital Pakar Sultanah Fatimah (Muar), Tx Unit","( 06)9564000  398 / 492","hemohpsf@gmail.com"
"Hospital Pakar Sultanah Fatimah (Muar), MRRB Unit","MOH","LIU WEN JIUN;","","","",""
"","","","Hospital Pakar Sultanah Fatimah  84000 Muar  Johor Darul Takzim  MALAYSIA","Hospital Pakar Sultanah Fatimah (Muar), MRRB Unit","-","Dr. NUZAIMIN HADAFI BIN AHMAD"
"KPJ Bandar Maharani Specialist Hospital, MRRB Unit","PRIVATE","YIA @ YEOW HUA JERN;","","","",""
"","","","MRRB Unit
KPJ Bandar Maharani Specialist Hospital
73-1, Jalan Stadium  84000 Muar  Johor Darul Takzim  MALAYSIA","KPJ Bandar Maharani Specialist Hospital, MRRB Unit","( 06)9564500  3002",""
"Nusajaya","","","","","",""
"Gleneagles Medini, CAPD Unit","PRIVATE","","","","",""
"","","","Gleneagles Medini
No. 2, Jalan Medini Utara 4, Medini Iskandar
Iskandar Puteri  79250 Nusajaya  Johor Darul Takzim  MALAYSIA","Gleneagles Medini, CAPD Unit","07-5601028",""
"Gleneagles Medini, HD Unit","PRIVATE","CHEONG WAI SENG;","","","",""
"","","","Pantai Medical Centre Sdn Bhd
No. 2, Jalan Medini Utara 4, Medini Iskandar
Iskandar Puteri  79250 Nusajaya  Johor Darul Takzim  MALAYSIA","Gleneagles Medini, HD Unit","607-5601000  1028","-"
"Prima Dialisis Nusajaya, HD Unit","PRIVATE","AHMAD FAIDHI BIN SAIDI;","","","",""
"","","","Prima Dialisis Nusajaya
No. 22 & 24 Jalan Nusaria 1 J/1
Taman Nusantara  79200 Nusajaya  Johor Darul Takzim  MALAYSIA","Prima Dialisis Nusajaya, HD Unit","07-5539482","primanusajaya19@yahoo.com"
"Pagoh","","","","","",""
"TSM-HATTA Dialysis Centre, HD Unit","PRIVATE","CHONG CHUN FUNG;","","","",""
"","","","TSM-HATTA Dialysis Centre
Lot 8261, Mukim Jorak
Daerah Muar  84600 Pagoh  Johor Darul Takzim  MALAYSIA","TSM-HATTA Dialysis Centre, HD Unit","012-7335242","tsm-hatta@sinarhdu.com"
"Parit Raja","","","","","",""
"Sinar Haemodialysis (Batu Pahat) Sdn Bhd, HD Unit","PRIVATE","FOO SEE FONG;","","","",""
"","","","Sinar Haemodialysis (Batu Pahat) Sdn Bhd
No. 4 & 5, Jalan Budiman 1
Taman Budiman, Kampung Parit Jambol  86400 Parit Raja  Johor Darul Takzim  MALAYSIA","Sinar Haemodialysis (Batu Pahat) Sdn Bhd, HD Unit","(07)4535482","sinarpj40@gmail.com"
"Pasir Gudang","","","","","",""
"Pasir Gudang Specialist Hospital, HD Unit","PRIVATE","","","","",""
"","","","Lot PTD 204781, Jalan Persiaran Dahlia2, Taman Bukit Dahlia  81700 Pasir Gudang  Johor Darul Takzim  MALAYSIA","Pasir Gudang Specialist Hospital, HD Unit","07-2573999  3958","pgsh@kpjpgsh.com"
"Pusat Dialisis An-Nur (Pasir Gudang), HD Unit","NGO","NOR AIZAL BINTI CHE HAMZAH;","","","",""
"","","","Pusat Dialisis An-Nur
(Waqaf An-Nur Corporation Berhad)
Balai Masjid Jamek Pasir Gudang
Jalan Masjid  81700 Pasir Gudang  Johor Darul Takzim  MALAYSIA","Pusat Dialisis An-Nur (Pasir Gudang), HD Unit","( 07)2555415  10 / 25","dwaqafpg@gmail.com"
"Pusat Dialisis Sinar Care, HD Unit","PRIVATE","ERMAN SYAH BIN ABDUL HAMID;","","","",""
"","","","Pusat Dialisis Sinar Care
Lot 204273
Jalan Bandar Pusat Perdagangan Pasir Gudang  81700 Pasir Gudang  Johor Darul Takzim  MALAYSIA","Pusat Dialisis Sinar Care, HD Unit","016-7444237","dialisissinarcare.pg@gmail.com"
"Pusat Hemodialisis Cemerlang Pasir Gudang, HD Unit","PRIVATE","MOHAMAD FADRI BIN ABDULLAH @ HARUN;","","","",""
"","","","Pusat Hemodialisis Cemerlang Pasir Gudang
No. 2, 3 Dan 3A, Jalan Lampam 7
Tanjung Puteri Resort  81700 Pasir Gudang  Johor Darul Takzim  MALAYSIA","Pusat Hemodialisis Cemerlang Pasir Gudang, HD Unit","017-6062290","cemerlanghealthcarepasirgudang@gmail.com"
"Pekan Nanas","","","","","",""
"Prima Dialisis Pekan Nanas, HD Unit","PRIVATE","AHMAD FAIDHI BIN SAIDI;","","","",""
"","","","Prima Dialisis Pekan Nanas
No. 11 & 12 (Ground Floor & First Floor)
Jalan Nenas 1, Taman Emas Merah  81500 Pekan Nanas  Johor Darul Takzim  MALAYSIA","Prima Dialisis Pekan Nanas, HD Unit","07-6996334","primapekannanas21@gmail.com"
"Pengerang","","","","","",""
"Pusat Hemodialisis APM, HD Unit","PRIVATE","MANOJ VARUGHESE K SAMUEL;","","","",""
"","","","Pusat Hemodialisis APM
No. 36, 36-01 & 37, Jalan Persiaran 2/2
Taman Bayu Damai  81600 Pengerang  Johor Darul Takzim  MALAYSIA","Pusat Hemodialisis APM, HD Unit","019-3398709","apm@smatmedi.com.my"
"Pontian","","","","","",""
"Iman Dialysis, HD Unit","PRIVATE","ADIBAH BINTI DRESS;","","","",""
"","","","Iman Dialysis Sdn Bhd
No. 2, Jalan Megah 11
Taman Megah  82000 Pontian  Johor Darul Takzim  MALAYSIA","Iman Dialysis, HD Unit","( 07)6878700","imandialysis@gmail.com"
"Pontian Hospital, HD Unit","MOH","LIU WEN JIUN;","","","",""
"","","","Haemodialysis Unit 
Pontian Hospital
Jalan Alfagoff  82000 Pontian  Johor Darul Takzim  MALAYSIA","Pontian Hospital, HD Unit","( 07)6873333  618 / 617","-"
"Pontian Rotary Haemodialysis Centre, HD Unit","NGO","PIONG CHEE LIAT;","","","",""
"","","","Pontian Rotary Haemodialysis Centre
Wisma Rotary, 141, Jalan Nong Chik 7
Taman Nong Chik  82000 Pontian  Johor Darul Takzim  MALAYSIA","Pontian Rotary Haemodialysis Centre, HD Unit","( 07)6866333","norhaslinda_sprhc@yahoo.com.my"
"Pusat Dialisis Davita Benut, HD Unit","PRIVATE","LOOK CHONG PHENG;","","","",""
"","","","Pusat Dialisis Davita Benut
No. 1, Gnd & 1st Floor, Jalan Benut Utama 1
Taman Benut Utama, Benut  82200 Pontian  Johor Darul Takzim  MALAYSIA","Pusat Dialisis Davita Benut, HD Unit","07-6901101",""
"Pusat Dialisis Nefro Utama (Pontian), HD Unit","PRIVATE","","","","",""
"","","","Pusat Dialisis Nefro Utama Sdn Bhd
(NUSB Global (M) Sdn Bhd)
No. 31 & 32, Jalan Delima 2
Pusat Perdagangan Pontian  82000 Pontian  Johor Darul Takzim  MALAYSIA","Pusat Dialisis Nefro Utama (Pontian), HD Unit","( 07)6883613","-"
"Pusat Dialisis Perbadanan Islam (Pontian), HD Unit","PRIVATE","NAFIZA BINTI MOHAMED;","","","",""
"","","","Pusat Rawatan Perbadanan Islam (Pontian)
No. 50, Tingkat Bawah & Satu, Jalan Delima
Pusat Perdagangan Pontian  82000 Pontian  Johor Darul Takzim  MALAYSIA","Pusat Dialisis Perbadanan Islam (Pontian), HD Unit","( 07)6881500","icmc_pontian@yahoo.com"
"Pusat Hemodialisis Afiat Care, HD Unit","PRIVATE","AHMAD FAIDHI BIN SAIDI;","","","",""
"","","","Afiat Care Sdn. Bhd.
Pusat Hemodialisis Afiat Care
13, Jalan Sri Api Api 1/1
Taman Api Api Emas  82000 Pontian  Johor Darul Takzim  MALAYSIA","Pusat Hemodialisis Afiat Care, HD Unit","017-7427014","afiatcare123@gmail.com"
"Pusat Hemodialisis Sentosa Sdn. Bhd., HD Unit","PRIVATE","MOHAMAD FADRI BIN ABDULLAH @ HARUN;","","","",""
"","","","Pusat Hemodialisis Sentosa Snd. Bhd.
No. 65, 67 & 69, Jalan Industri 8/1
Taman Perindustrian Pekan Nanas
Pekan Nanas  81500 Pontian  Johor Darul Takzim  MALAYSIA","Pusat Hemodialisis Sentosa Sdn. Bhd., HD Unit","07-6790026","phsentosasb@gmail.com"
"Pontian Hospital, Tx Unit","MOH","LIU WEN JIUN;","","","",""
"","","","Renal Transplant Clinic (c/o Haemodialysis Unit)
Pontian Hospital
Jalan Alsagoff  82000 Pontian  Johor Darul Takzim  MALAYSIA","Pontian Hospital, Tx Unit","( 07)6873333  618 / 617","-"
"Segamat","","","","","",""
"BP Renalcare (Segamat) Sdn Bhd, HD Unit","PRIVATE","CHEW MAY YEEN;","","","",""
"","","","BP Renalcare (Segamat) Sdn Bhd
No.9,10,11,11A,12 & 12A
Jalan Putra 1/5
Bandar Putra  85000 Segamat  Johor Darul Takzim  MALAYSIA","BP Renalcare (Segamat) Sdn Bhd, HD Unit","07-9431200","bprc.segamat@gmail.com"
"Pertubuhan Hemodialisis Muhibbah Segamat (Cawangan Jementah), HD Unit","NGO","LEE HONG TEE;","","","",""
"","","","Pertubuhan Hemodialisis Muhibbah Segamat (Cawangan Jementah)
No.42, 44 & 46, Jalan Ah Tong
Jementah  85200 Segamat  Johor Darul Takzim  MALAYSIA","Pertubuhan Hemodialisis Muhibbah Segamat (Cawangan Jementah), HD Unit","07-9471 025","muhibbah.jmt@gmail.com"
"Pertubuhan Hemodialisis Muhibbah Segamat, HD Unit","NGO","SOON KIEN EE;","","","",""
"","","","Pertubuhan Hemodialisis Muhibah Segamat Johor
1st Floor, Wisma MUHIBBAH
Jalan Putra 1/1, Bandar IOI  85000 Segamat  Johor Darul Takzim  MALAYSIA","Pertubuhan Hemodialisis Muhibbah Segamat, HD Unit","( 07)9435900","phmsj95@gmail.com"
"Pusat Hemodialisis Sinar (Jementah), HD Unit","PRIVATE","EZZAH NAFISAH BINTI ARPAN;","","","",""
"","","","Zamrud Haemodialisis Sdn. Bhd.
Pusat Hemodialisis Sinar (Jementah)
No. 2 & 3, Jalan Mesra 1,
Taman Mesra, Jementah  85200 Segamat  Johor Darul Takzim  MALAYSIA","Pusat Hemodialisis Sinar (Jementah), HD Unit","(07)9475242","sinarjementah@gmail.com"
"Pusat Perbadanan Islam Segamat, HD Unit","PRIVATE","BANI BIN MAHMOOD @ ABU;","","","",""
"","","","Pusat Dialisis Perbadanan Islam Segamat
No. 29, Batu 1, Jalan Buluh Kasap  85000 Segamat  Johor Darul Takzim  MALAYSIA","Pusat Perbadanan Islam Segamat, HD Unit","( 07)9312500","icmcsgmt@yahoo.com"
"Putera Bistari Dialysis Centre, HD Unit","PRIVATE","MOHD NGALI BIN BUYASIM;","","","",""
"","","","Putera Bistari Dialysis Centre
No. 3, 3A & 4 Jalan Astaka Jaya 6
Taman Astakajaya  85010 Segamat  Johor Darul Takzim  MALAYSIA","Putera Bistari Dialysis Centre, HD Unit","( 07)9444223","pbdc@familymedicare.com.my"
"Segamat Hospital, HD Unit","MOH","LIU WEN JIUN;","","","",""
"","","","Haemodialysis Unit
Hospital Segamat
KM6. Jalan Genuang  83500 Segamat  Johor Darul Takzim  MALAYSIA","Segamat Hospital, HD Unit","( 07)9433333  147 / 149","-"
"Segamat Hospital, Tx Unit","MOH","LIU WEN JIUN;","","","",""
"","","","Renal Transplant Clinic (c/o Haemodialysis Unit)
Hospital Segamat
KM 6, Jalan Genuang  83500 Segamat  Johor Darul Takzim  MALAYSIA","Segamat Hospital, Tx Unit","( 07)9433333  147 / 149","-"
"Senai","","","","","",""
"Pusat Dialisis Perdana, HD Unit","PRIVATE","GOH BOON SER;","","","",""
"","","","Pusat Dialisis Perdana
No.5 & 5-01, Jalan Seni  81400 Senai  Johor Darul Takzim  MALAYSIA","Pusat Dialisis Perdana, HD Unit","016-7402627","perdanakidney@gmail.com"
"Pusat Dialysis Makmur (Senai), HD Unit","PRIVATE","ROSILAWATI BINTI MOHD NOOR;","","","",""
"","","","Pusat Dialysis Makmur
(Makmur Healthcare Centre Sdn Bhd)
No. 168, Lorong Padi Mahsuri 2
Tmn Senai Baru  81400 Senai  Johor Darul Takzim  MALAYSIA","Pusat Dialysis Makmur (Senai), HD Unit","( 07)5951833","makmurhealthcare@yahoo.com"
"Pusat Hemodialysis Rotary Kulai, HD Unit","NGO","PIONG CHEE LIAT;","","","",""
"","","","Pusat Hemodialysis Rotary Kulai 
(The Rotary Club of Kulai Foundation)
No. 1, Jalan Bintang 2
Taman Bintang  81400 Senai  Johor Darul Takzim  MALAYSIA","Pusat Hemodialysis Rotary Kulai, HD Unit","( 07)5980822","rckulai1997@gmail.com"
"Simpang Renggam","","","","","",""
"BP Renal Care Simpang Renggam, HD Unit","PRIVATE","TAY YAO KEONG;","","","",""
"","","","BP Renal Care Simpang Renggam
No. 58, 60 Jalan Setia 2,
Pusat Perdagangan Setia  86200 Simpang Renggam  Johor Darul Takzim  MALAYSIA","BP Renal Care Simpang Renggam, HD Unit","( 07)7555642","bprcsimpangrenggam@gmail.com"
"Pelangi Haemodialysis, HD Unit","PRIVATE","AZHAR BIN JASWADI;","","","",""
"","","","Pelangi Haemodialysis 
(Pusat Haemodialysis Centre Sdn Bhd)
No. 23, Pusat Perniagaan Pelangi
Jalan Pelangi  86200 Simpang Renggam  Johor Darul Takzim  MALAYSIA","Pelangi Haemodialysis, HD Unit","(019)5713910","fati6464@yahoo.com"
"Pusat Dialisis Klinik Kesihatan Simpang Renggam, HD Unit","MOH","LIU WEN JIUN;","","","",""
"","","","Pusat Dialisis Klinik Kesihatan Simpang Renggam
Pusat Dialisis Klinik Kesihatan
Jalan Rambutan  86200 Simpang Renggam  Johor Darul Takzim  MALAYSIA","Pusat Dialisis Klinik Kesihatan Simpang Renggam, HD Unit","( 07)7552655",""
"Skudai","","","","","",""
"Perkhidmatan Hemodialisis Raudhah Dialisis Centre, HD Unit","PRIVATE","KAMARUDIN BIN AHMAD;","","","",""
"","","","Perkhidmatan Hemodialisis Raudhah Dialisis Centre
No. 47 & 49, Jalan Utama 34
Taman Mutiara Rini  81300 Skudai  Johor Darul Takzim  MALAYSIA","Perkhidmatan Hemodialisis Raudhah Dialisis Centre, HD Unit","07-5952128","raudhahdialisis@gmail.com"
"Zhi En Dialysis Centre, HD Unit","PRIVATE","LAW TEIK YEONG;","","","",""
"","","","Zhi En Dialysis Centre
No. 33, Jalan Impian Emas 5/2
Taman Impian Emas  81300 Skudai  Johor Darul Takzim  MALAYSIA","Zhi En Dialysis Centre, HD Unit","( 07)5546882","zhiendialysiscentre@gmail.com"
"Sungai Mati","","","","","",""
"Pusat Rawatan Dialisis Pusat Hemodialisis Syukur, HD Unit","PRIVATE","LITA A/P RAMASAMY;","","","",""
"","","","Pusat Rawatan Dialisis Pusat Hemodialisis Syukur
Sunmars Sdn Bhd
No. 4 (Tingkat Bawah), Jalan Waja,
Taman Kangkar Jaya  84400 Sungai Mati  Johor Darul Takzim  MALAYSIA","Pusat Rawatan Dialisis Pusat Hemodialisis Syukur, HD Unit","06-9753692","hdsyukurtangkak@gmail.com"
"Tangkak","","","","","",""
"Pusat Haemodialisis Suria (Tangkak), HD Unit","PRIVATE","MOHD RAIHAN BIN OMAR;","","","",""
"","","","Pusat Haemodialisis Suria (Tangkak)
(Kumar Urology & Stone Centre Sdn Bhd)
No. 5, Jalan Payamas 3/2
Taman Payamasa 3  84900 Tangkak  Johor Darul Takzim  MALAYSIA","Pusat Haemodialisis Suria (Tangkak), HD Unit","012-2343483","suria.tangkak@yahoo.com"
"Pusat Hemodialisis Ar-Raudhah, HD Unit","PRIVATE","","","","",""
"","","","Pusat Hemodialisis Ar-Raudhah Sdn Bhd
No. 19 & 20, Jalan Dato' Ngah
Pusat Perniagaan Anjung Batu  84900 Tangkak  Johor Darul Takzim  MALAYSIA","Pusat Hemodialisis Ar-Raudhah, HD Unit","( 06)9789951","arraudhahwecare@yahoo.com"
"Pusat Hemodialisis Fomema Haemodialysis Tangkak, HD Unit","PRIVATE","ZEENAT BINTI ABDUL SHAKUR;","","","",""
"","","","Pusat Hemodialisis Fomema Haemodialysis Tangkak
No. JM 18 & 19, Jalan Manja  84900 Tangkak  Johor Darul Takzim  MALAYSIA","Pusat Hemodialisis Fomema Haemodialysis Tangkak, HD Unit","06-9650333","fh.tangkak@fomemadialysis.com.my"
"Tangkak Hospital, HD Unit","MOH","LIU WEN JIUN;","","","",""
"","","","Haemodialysis Unit
Tangkak Hospital  84900 Tangkak  Johor Darul Takzim  MALAYSIA","Tangkak Hospital, HD Unit","( 06)9781206  1059 /1060","hospitaltangkakjohor@gmail.com"
"Tangkak Lions Renal Centre, HD Unit","NGO","","","","",""
"","","","Tangkak Lions Renal Centre
No. 1, Jalan Ikhtiari 1
Taman Ikhtiari  84900 Tangkak  Johor Darul Takzim  MALAYSIA","Tangkak Lions Renal Centre, HD Unit","( 06)9781680","tangkaklion1680@gmail.com"
"Ulu Tiram","","","","","",""
"Pusat Haemodialysis Wecare, HD Unit","PRIVATE","GHANA NATHAN A/L RAJENDRAN;","","","",""
"","","","Pusat Haemodialysis Wecare
No. 104 (Tingkat Bawah, Tingkat 1 & Tingkat 2) &
106 (Tingkat Bawah, Tingkat 1 & Tingkat 2)
Jalan Bandar Cemerlang 3/1
Bandar Cemerlang  81800 Ulu Tiram  Johor Darul Takzim  MALAYSIA","Pusat Haemodialysis Wecare, HD Unit","07-8639670","haemodialysiswecare@gmail.com"
"Pusat Hemodialisis Mutiara, HD Unit","PRIVATE","RAZLINA BINTI JOHARI;","","","",""
"","","","Pusat Hemodialisis Mutiara
No.2, Jalan Cantik 5
Taman Pelangi Indah  81800 Ulu Tiram  Johor Darul Takzim  MALAYSIA","Pusat Hemodialisis Mutiara, HD Unit","07-8616359","rfpelangi01@gmail.com"
"Yong Peng","","","","","",""
"BP Renalcare (Yong Peng) Sdn Bhd, HD Unit","PRIVATE","KEE SWEE ANN;","","","",""
"","","","BP Renalcare (Yong Peng) Sdn Bhd
No.2 & 2A Jalan Utama 3
Taman Utama  83700 Yong Peng  Johor Darul Takzim  MALAYSIA","BP Renalcare (Yong Peng) Sdn Bhd, HD Unit","07-4672244","bprenalcare.yp@gmail.com"
"NSCMH Dialysis Care Cawangan Yong Peng, HD Unit","NGO","SHANTA HENRY JAWAHAR;","","","",""
"","","","NSCMH Dialysis Care Cawangan Yong Peng
No.14 & 16, Jalan Sutera 1
Taman Sutera  83700 Yong Peng  Johor Darul Takzim  MALAYSIA","NSCMH Dialysis Care Cawangan Yong Peng, HD Unit","011-16125288","dialysisyp@gmail.com"
"Pusat Hemodialisis Darul Ta'zim (Parit Yaani), HD Unit","PRIVATE","NORULKAMAR BIN SOIN;","","","",""
"","","","No.23 & 24, Jalan Perdagangan 1
Taman Perdagangan Parit Yaani  83710 Yong Peng  Johor Darul Takzim  MALAYSIA","Pusat Hemodialisis Darul Ta'zim (Parit Yaani), HD Unit","07-4846111","bvphdt@gmail.com"