"name","sector","drInCharge","address","addressWithUnit","tel","email"
"Centres","","","","","",""
"Ampang","","","","","",""
"Ampang Hospital, CAPD Unit","MOH","NORAZINIZAH BINTI AHMAD MISWAN;","","","",""
"","","","Ampang Hospital CAPD UnitJalan Mewah Utara,Pandan Mewah  68000 Ampang  Selangor Darul Ehsan  MALAYSIA","Ampang Hospital, CAPD Unit","03-42896000  6206",""
"Ampang Hospital, HD Unit","MOH","NORAZINIZAH BINTI AHMAD MISWAN;","","","",""
"","","","Haemodialysis UnitAmpang HospitalJalan Mewah Utara, Pandan Mewah  68000 Ampang  Selangor Darul Ehsan  MALAYSIA","Ampang Hospital, HD Unit","( 03)42896000  6018",""
"Haemodialysis Yakin Prima Ampang, HD Unit","PRIVATE","AKMAIZANIZAM BIN MUHAMMAD;","","","",""
"","","","Haemodialysis Yakin Prima AmpangNo. G-31, Jalan Pandan Prima 1Dataran Pandan Prima  68000 Ampang  Selangor Darul Ehsan  MALAYSIA","Haemodialysis Yakin Prima Ampang, HD Unit","019-3786765",""
"KPJ Ampang Puteri Specialist Hospital, HD Unit","PRIVATE","PHILIP N. JEREMIAH;","","","",""
"","","","Haemodialysis UnitSuit 1-7,  KPJ Ampang Puteri Specialist HospitalNo. 1, Jalan Mamanda 9,Taman Dato' Ahmad Razali  68000 Ampang  Selangor Darul Ehsan  MALAYSIA","KPJ Ampang Puteri Specialist Hospital, HD Unit","( 03)42702500  1249 /1250","najiah@kpjampang.com"
"Pusat Dialisis Rakyat (Lembah Keramat), HD Unit","PRIVATE","KALAICHELVAN A/L BATUMALAI;","","","",""
"","","","Pusat Dialisis Rakyat Lembah Keramat(Gedung Penawar Sdn. Bhd)Dewan Orang Ramai, Lembah KeramatJalan AU5C/10  54200 Ampang  Selangor Darul Ehsan  MALAYSIA","Pusat Dialisis Rakyat (Lembah Keramat), HD Unit","( 03)41628600","pdmlembahkeramat@gedungpenawar.com"
"Pusat Dialisis Rakyat Ampang, HD Unit","PRIVATE","SUZAIDA BINTI ABDUL WAHAB;","","","",""
"","","","Pusat Dialisis Rakyat AmpangDewan Datuk Tahir Karim, Jalan KempasKampung Melayu Ampang  68000 Ampang  Selangor Darul Ehsan  MALAYSIA","Pusat Dialisis Rakyat Ampang, HD Unit","( 03)42651822","pdmampang@gedungpenawar.com"
"Pusat Hemodialisis Kau Ong Yah Ampang, HD Unit","NGO","LEE WAN TIN;","","","",""
"","","","Pusat Hemodialisis Kau Ong Yah Ampang(Ampang Kau Ong Yah Foundation, Selangor and Kuala Lumpur)Lot 6805, Jalan MerdekaKampung Baru Ampang  68000 Ampang  Selangor Darul Ehsan  MALAYSIA","Pusat Hemodialisis Kau Ong Yah Ampang, HD Unit","03-42855688","gainjane@gmail.com"
"Pusat Rawatan Dialisis Islah (KL), HD Unit","PRIVATE","A LATIF BIN PARDI;","","","",""
"","","","Pusat Rawatan Dialisis Islah(Islah Dialisis Sdn Bhd)Blok A2-G-02 & A3-G-01, Hata Square, Jalan Mewah 1/3Pandan Mewah  58100 Ampang  Selangor Darul Ehsan  MALAYSIA","Pusat Rawatan Dialisis Islah (KL), HD Unit","( 03)42919957","prdi_ampang@islahdialisis.com"
"KPJ Ampang Puteri Specialist Hospital, Tx Unit","PRIVATE","PHILIP N. JEREMIAH;","","","",""
"","","","Renal Transplant ClinicSuit 1-7, KPJ Ampang Puteri Specialist HospitalNo. 1, Jalan Mamanda 9,Taman Dato' Ahmad Razali  68000 Ampang  Selangor Darul Ehsan  MALAYSIA","KPJ Ampang Puteri Specialist Hospital, Tx Unit","( 03)42722500  1249","-"
"Ampang Hospital, MRRB Unit","MOH","NORAZINIZAH BINTI AHMAD MISWAN;","","","",""
"","","","Haemodialysis UnitAmpang HospitalJalan Mewah Utara, Pandan Mewah  68000 Ampang  Selangor Darul Ehsan  MALAYSIA","Ampang Hospital, MRRB Unit","03-4289600",""
"KPJ Ampang Puteri Specialist Hospital, MRRB Unit","PRIVATE","PHILIP N. JEREMIAH;","","","",""
"","","","Suit 1-7, 1st Floor, KPJ Ampang Puteri Specialist Hospital1, Jalan Mamanda 9Taman Dato' Ahmad Razali  68000 Ampang  Selangor Darul Ehsan  MALAYSIA","KPJ Ampang Puteri Specialist Hospital, MRRB Unit","( 03)42702500",""
"Bandar Baru Bangi","","","","","",""
"Hospital Pakar An-nur Specialist Hospital, HD Unit","PRIVATE","MAISARA BINTI YUSRA;","","","",""
"","","","Hospital Pakar An-nur Specialist HospitalJalan Gerbang Wawasan 1Seksyen 15  43650 Bandar Baru Bangi  Selangor Darul Ehsan  MALAYSIA","Hospital Pakar An-nur Specialist Hospital, HD Unit","03-89235500  5564","nurulnuha.annur@gmail.com"
"Pusat Hemodialisis Amethyst, HD Unit","PRIVATE","MANIVANNAN A/L MUNISAMY;","","","",""
"","","","Pusat Hemodialisis AmethystNo. 4 & 4-1, Jalan 4/12AFasa 4 Tambahan  43650 Bandar Baru Bangi  Selangor Darul Ehsan  MALAYSIA","Pusat Hemodialisis Amethyst, HD Unit","03-89251129","amdc.enquiry@gmail.com"
"Bandar Puncak Alam","","","","","",""
"Unit Peritoneal Dialisis Hospital UiTM (Bandar Puncak Alam), CAPD Unit","UNIVERSITY","MUHAMMAD IQBAL BIN ABDUL HAFIDZ;","","","",""
"","","","Unit Peritoneal DialisisHospital Pengajar UiTMKampus UiTM Puncak Alam  42300 Bandar Puncak Alam  Selangor Darul Ehsan  MALAYSIA","Unit Peritoneal Dialisis Hospital UiTM (Bandar Puncak Alam), CAPD Unit","03-33963000  12603","renaluitm@gmail.com"
"Pusat Dialisis Foresight Dialysis Bandar Puncak Alam, HD Unit","PRIVATE","MAISARAH BINTI JALALONMUHALI;","","","",""
"","","","Pusat Dialisis Foresight Dialysis Bandar Puncak AlamNo. 20-1, 20-2, 22-1 & 22-2, Jalan Dataran Suria15/7/3 Seksyen 15  42300 Bandar Puncak Alam  Selangor Darul Ehsan  MALAYSIA","Pusat Dialisis Foresight Dialysis Bandar Puncak Alam, HD Unit","03-33934164","bandarpuncakalam@foresightdialysis.com"
"Pusat Rawatan Dialisis Pusat Dialisis Nur Kasih Sdn Bhd (Cawangan Puncak Alam), HD Unit","PRIVATE","ELANGKEERAN A/L M KRISHNAN;","","","",""
"","","","Pusat Rawatan Dialisis Pusat Dialisis Nur Kasih Sdn Bhd (Cawangan Puncak Alam)No. 19, 19A & 21, 21A, Jalan Niaga Bestari 5Puncak Alam  42300 Bandar Puncak Alam  Selangor Darul Ehsan  MALAYSIA","Pusat Rawatan Dialisis Pusat Dialisis Nur Kasih Sdn Bhd (Cawangan Puncak Alam), HD Unit","010-2753307","pdnk.puncakalam@gmail.com"
"Unit Hemodialisis Hospital UiTM (Bandar Puncak Alam), HD Unit","UNIVERSITY","MUHAMMAD IQBAL BIN ABDUL HAFIDZ;","","","",""
"","","","Unit Hemodialisis,Hospital Pengajar UiTMKampus UiTM Puncak Alam  42300 Bandar Puncak Alam  Selangor Darul Ehsan  MALAYSIA","Unit Hemodialisis Hospital UiTM (Bandar Puncak Alam), HD Unit","03-33963000  12603","renaluitm@gmail.com"
"Hospital Al-Sultan Abdullah UiTM (Bandar Puncak Alam), Tx Unit","UNIVERSITY","","","","",""
"","","","Hospital Al-Sultan Abdullah UiTM (Bandar Puncak Alam)  52300 Bandar Puncak Alam  Selangor Darul Ehsan  MALAYSIA","Hospital Al-Sultan Abdullah UiTM (Bandar Puncak Alam), Tx Unit","03-33963000  3200/3207",""
"Bangi","","","","","",""
"Bangi Dialysis Centre, HD Unit","PRIVATE","CHRISTOPHER LIM THIAM SEONG;","","","",""
"","","","Bangi Dialysis Centre Sdn BhdNo. 909G & 910G, Kompleks Diamond, Bangi Business ParkBandar Baru Bangi  43650 Bangi  Selangor Darul Ehsan  MALAYSIA","Bangi Dialysis Centre, HD Unit","( 03)82100700","bangidialysiscentre640738@gmail.com"
"Ibnu Al-Nafis Dialysis Centre, HD Unit","PRIVATE","MAISARA BINTI YUSRA;","","","",""
"","","","Ibnu Al-Nafis Dialysis CentreLOT 12A & 12B, JALAN 3/70, SEKSYEN 3 TAMBAHANBandar Baru Bangi  43650 Bangi  Selangor Darul Ehsan  MALAYSIA","Ibnu Al-Nafis Dialysis Centre, HD Unit","( 03)89203779","ibnualnafis123@gmail.com"
"Pusat Perubatan Dialisis (Bangi), HD Unit","PRIVATE","NOR HASHIMAH BINTI AMATOKIRAN;","","","",""
"","","","Pusat Perubatan DialisisNo. 409, Kompleks Diamond, Bangi Business ParkBandar Baru Bangi  43650 Bangi  Selangor Darul Ehsan  MALAYSIA","Pusat Perubatan Dialisis (Bangi), HD Unit","( 03)89255526","ppdcerqofy@gmail.com"
"Suriya Dialysis Centre, HD Unit","PRIVATE","","","","",""
"","","","Suriya Dialysis CentreNo. 21, Jalan 9/2 Seksyen 9Taman IKD , Bandar Baru Bangi  43650 Bangi  Selangor Darul Ehsan  MALAYSIA","Suriya Dialysis Centre, HD Unit","( 03)89269954","suriyadialysisbangi@gmail.com"
"Universiti Kebangsaan Malaysia Bangi, HD Unit","UNIVERSITY","ABDUL HALIM BIN ABDUL GAFOR;","","","",""
"","","","Haemodialysis Unit Pusat Kesihatan PelajarUniversiti Kebangsaan MalaysiaUniversiti Kebangsaan Malaysia  43650 Bangi  Selangor Darul Ehsan  MALAYSIA","Universiti Kebangsaan Malaysia Bangi, HD Unit","( 03)89213268",""
"Banting","","","","","",""
"Banting Hospital, HD Unit","MOH","SHAHNAZ BINTI SHAH FIRDAUS KHAN;","","","",""
"","","","Hemodialisis UnitHospital BantingJalan Sultan Alam Shah  42700 Banting  Selangor Darul Ehsan  MALAYSIA","Banting Hospital, HD Unit","( 03)31871333  397 / 398","1@yahoo.com.my"
"Pusat Dialisis Indah (Banting), HD Unit","PRIVATE","TAMILVANI A/P ARUMUGAM;","","","",""
"","","","Pusat Dialisis Indah (Banting)No. 172 Jalan NilamTaman Nilam  42700 Banting  Selangor Darul Ehsan  MALAYSIA","Pusat Dialisis Indah (Banting), HD Unit","03-31878430",""
"Pusat Dialisis Velmed, HD Unit","PRIVATE","MOHAN A/L RAMACHANDRAN;","","","",""
"","","","Pusat Dialisis VelmedNo.54, 56, 56A, Jalan Emas 7Bandar Sungai Emas  42700 Banting  Selangor Darul Ehsan  MALAYSIA","Pusat Dialisis Velmed, HD Unit","03-31803825","velmedmedicare@gmail.com"
"Pusat Hemodialisis Persatuan Kebajikan Pusat Chee Beng Chan Banting, HD Unit","NGO","LOO CHEE YEAN;","","","",""
"","","","Pusat Hemodialisis Persatuan Kebajikan Pusat Chee Beng Chan BantingNo. 5, Jalan Bunga Pekan 1,Banting, Kuala Langat  42700 Banting  Selangor Darul Ehsan  MALAYSIA","Pusat Hemodialisis Persatuan Kebajikan Pusat Chee Beng Chan Banting, HD Unit","03-31840513","phcbengchan@gmail.com"
"Pusat Rawatan Hemodialysis Felina, HD Unit","PRIVATE","MUHAMMAD ASHRAF BIN MOHD PADZIL;","","","",""
"","","","Pusat Rawatan Hemodialysis Felina(Gedung Penawar Sdn Bhd)JKR 61, Jalan MahkamahTelok Datok  42700 Banting  Selangor Darul Ehsan  MALAYSIA","Pusat Rawatan Hemodialysis Felina, HD Unit","( 03)31803368","pdmfelina@gedungpenawar.com"
"SJAM-KPS Haemodialysis Centre 3 (Banting), HD Unit","NGO","KENNETH LAI KOAH KIEN;","","","",""
"","","","Pusat Hemodialisis Banting Yayasan NanyangSt John Ambulans Malaysia, Kawasan Pantai SelangorDG5, DG7 & DG9, Jln Seri Pekan 5Medan Seri Pekan  42700 Banting  Selangor Darul Ehsan  MALAYSIA","SJAM-KPS Haemodialysis Centre 3 (Banting), HD Unit","03-31809005","st3@sjamsde.org.my"
"Batang Kali","","","","","",""
"Pusat Dialisis Davita Antara Gapi, HD Unit","PRIVATE","ZANNAT BEGAM BINTI SAWAL HAMID;","","","",""
"","","","Pusat Dialisis Davita Antara GapiLot 4-G & LG dan 5-G & LGJalan Empurau 1, Taman Empurau  44300 Batang Kali  Selangor Darul Ehsan  MALAYSIA","Pusat Dialisis Davita Antara Gapi, HD Unit","03-60660355","nurulsyakila.rusly@davita.com"
"Pusat Dialisis Nephrocare (Cawangan Batang Kali)","PRIVATE","LOW LI YAM;","","","",""
"","","","Pusat Hemodialisis Syifa(Ain Murni Management Sdn Bhd)No. 16, Jalan Mahagoni 2A/7, Tamu HillBandar Utama Batang Kali  44300 Batang Kali  Selangor Darul Ehsan  MALAYSIA","Pusat Dialisis Nephrocare (Cawangan Batang Kali)","(016)9982202","nzmy80@gmail.com"
"Pusat Dialisis Yayasan Veteran ATM (Cawangan Batang Kali), HD Unit","PRIVATE","MUHAMMAD RASHID BIN SHERDILL;","","","",""
"","","","Pusat Dialisis Yayasan Veteran ATM (Cawangan Batang Kali)No. 2 (Tingkat Bawah), Jalan Mahagoni 9Oasis Seksyen 4, Bandar Utama Batang Kali  44300 Batang Kali  Selangor Darul Ehsan  MALAYSIA","Pusat Dialisis Yayasan Veteran ATM (Cawangan Batang Kali), HD Unit","03-60574544","dvetbk@gmail.com"
"Batu Caves","","","","","",""
"Selayang Hospital (Paed), CAPD Unit","MOH","","","","",""
"","","","CAPD Unit (Paed)Hospital SelayangLebuhraya Selayang-Kepong  68100 Batu Caves  Selangor Darul Ehsan  MALAYSIA","Selayang Hospital (Paed), CAPD Unit","( 03)61263233  8015 /8016",""
"Selayang Hospital, CAPD Unit","MOH","","","","",""
"","","","Unit PD (Adult)Selayang HospitalLebuhraya Selayang-Kepong  68100 Batu Caves  Selangor Darul Ehsan  MALAYSIA","Selayang Hospital, CAPD Unit","( 03)61263233  3081",""
"EAM Dialysis Centre, HD Unit","PRIVATE","CHOY KWAN LOONG;","","","",""
"","","","EAM Dialysis Centre (Edaran Arif Medik Sdn Bhd)No. 9A, Jalan SG3/1, Pusat Bandar Sri GombakTaman Sri Gombak  68100 Batu Caves  Selangor Darul Ehsan  MALAYSIA","EAM Dialysis Centre, HD Unit","( 03)61892041","eamdialysiscentresdnbhd@gmail.com"
"Platinum Dialysis Centre, HD Unit","PRIVATE","LOW LI YAM;","","","",""
"","","","Platinum Dialysis CentreNo. 12 A-G & No 16, Jalan OS 1/3One Selayang, Business Centre  68100 Batu Caves  Selangor Darul Ehsan  MALAYSIA","Platinum Dialysis Centre, HD Unit","( 03)61311575","platinumselayang@gmail.com"
"Pusat Dialisis NKF-Rotary Damansara, HD Unit","NGO","GOH BAK LEONG;","","","",""
"","","","Pusat Dialisis NKF-Rotary Damansara(National Kidney Foundation of Malaysia)No. 30 - 32, Tingkat bawah, Jalan PS9Taman Prima Selayang  68100 Batu Caves  Selangor Darul Ehsan  MALAYSIA","Pusat Dialisis NKF-Rotary Damansara, HD Unit","( 03)61371884","slyg_nkf@yahoo.com"
"Pusat Dialisis Yayasan Veteran ATM (Sunway Batu Caves), HD Unit","PRIVATE","ZALEHA BINTI SHA'ABAN;","","","",""
"","","","Pusat Dialisis Yayasan Veteran ATM(Cawangan Sunway Batu Caves)No. 18G, Jalan SM4, Taman Sunway Batu Caves  68100 Batu Caves  Selangor Darul Ehsan  MALAYSIA","Pusat Dialisis Yayasan Veteran ATM (Sunway Batu Caves), HD Unit","( 03)61881292","dvetbc@gmail.com"
"Pusat Hemodialisis MAIWP-PICOMS (Batu Muda), HD Unit","PRIVATE","MOHD JOHAN BIN MOHD JOHARI;","","","",""
"","","","Pusat Hemodialisis MAIWP-PICOMSNo. 3, Jalan 31/10ATaman Perindustrian IKSTaman Batu Muda  68100 Batu Caves  Selangor Darul Ehsan  MALAYSIA","Pusat Hemodialisis MAIWP-PICOMS (Batu Muda), HD Unit","( 03)61869509","hayati@picoms.edu.my"
"Pusat Hemodialisis Permata, HD Unit","PRIVATE","BENJAMIN SINNAPPAN A/L ARULANANDHU;","","","",""
"","","","Pusat Hemodialisis Permata Sdn BhdNo. 35, Jalan PS 8Taman Prima Selayang  68100 Batu Caves  Selangor Darul Ehsan  MALAYSIA","Pusat Hemodialisis Permata, HD Unit","( 03)61202467","phpermata@yahoo.com"
"Pusat Rawatan Dialisis Islah (Cawangan Batu Caves), HD Unit","PRIVATE","A LATIF BIN PARDI;","","","",""
"","","","Pusat Rawatan Dialisis Islah (Cawangan Batu Caves)No. 63, 64 & 65 (Tingkat Bawah), Jalan 3Batu Caves Centre Point  68100 Batu Caves  Selangor Darul Ehsan  MALAYSIA","Pusat Rawatan Dialisis Islah (Cawangan Batu Caves), HD Unit","03-61894010","prdi_btcaves@islahdialisis.com"
"Pusat Rawatan Dialisis Islah (Prima Sri Gombak), HD Unit","PRIVATE","MARLIZAN BIN MUHAMMAD YUSOFF;","","","",""
"","","","Pusat Rawatan Dialisis IslahNo. 117 &118, Jalan Prima SG4Prima Sri Gombak  68100 Batu Caves  Selangor Darul Ehsan  MALAYSIA","Pusat Rawatan Dialisis Islah (Prima Sri Gombak), HD Unit","( 03)61896010","prdi_prima@islahdialisis.com"
"Pusat Rawatan Dialisis Islah (Selayang), HD Unit","PRIVATE","MARLIZAN BIN MUHAMMAD YUSOFF;","","","",""
"","","","Pusat Rawatan Dialisis Islah No. 17 & 17A, Jalan PS 8Taman Prima SelayangJalan Rawang  68100 Batu Caves  Selangor Darul Ehsan  MALAYSIA","Pusat Rawatan Dialisis Islah (Selayang), HD Unit","( 03)61205170","prdi_slyang@islahdialisis.com"
"Sai Ananda Haemodialysis Centre, HD Unit","NGO","ELAMBALA A/P RAM SAROOP;","","","",""
"","","","Sai Ananda Haemodialysis CentreNo. 340, Jalan 2/2, Off Jalan Laksamana 2Kampong Laksamana  68100 Batu Caves  Selangor Darul Ehsan  MALAYSIA","Sai Ananda Haemodialysis Centre, HD Unit","03-61786587","freedialysis@saiananda.org.my"
"Selayang Hospital (Paed), HD Unit","MOH","","","","",""
"","","","Haemodialysis Unit (Paed), Ward 8BHospital SelayangLebuhraya Selayang-Kepong  68100 Batu Caves  Selangor Darul Ehsan  MALAYSIA","Selayang Hospital (Paed), HD Unit","( 03)61203233  8015 /8016",""
"Selayang Hospital, HD Unit","MOH","","","","",""
"","","","Haemodialysis / CAPD Unit (Adult)Hospital Selayang Lebuhraya Selayang-Kepong  68100 Batu Caves  Selangor Darul Ehsan  MALAYSIA","Selayang Hospital, HD Unit","( 03)61203233  3077 /3085","sarudin@selayanghospital.gov.my"
"Selayang Hospital, Tx Unit","MOH","","","","",""
"","","","Renal Transplant Clinic (Nephrology Clinic) Hospital SelayangLebuhraya Selayang-Kepong  68100 Batu Caves  Selangor Darul Ehsan  MALAYSIA","Selayang Hospital, Tx Unit","( 03)61263333  7007","-"
"Selayang Hospital (Paed), MRRB Unit","MOH","","","","",""
"","","","Department of Paediatric MedicineHospital SelayangLebuhraya Selayang-Kepong  68100 Batu Caves  Selangor Darul Ehsan  MALAYSIA","Selayang Hospital (Paed), MRRB Unit","( 03)61203233",""
"Selayang Hospital, MRRB Unit","MOH","BEE BOON CHEAK;","","","",""
"","","","Department of NephrologyHospital SelayangLebuhraya Selayang-Kepong  68100 Batu Caves  Selangor Darul Ehsan  MALAYSIA","Selayang Hospital, MRRB Unit","( 03)61203233",""
"Beranang","","","","","",""
"Foresight Dialysis Bandar Tasik Kesuma, HD Unit","PRIVATE","MOHAMAD SABRY BIN LAYA;","","","",""
"","","","Foresight Dialysis Bandar Tasik KesumaNo. 37 & 39, Jalan 3/3,Bandar Tasik Kesuma  43700 Beranang  Selangor Darul Ehsan  MALAYSIA","Foresight Dialysis Bandar Tasik Kesuma, HD Unit","012-6598289","bandartasikkesuma@foresightdialysis.com"
"Bestari Jaya","","","","","",""
"Klinik Waqaf An-Nur (Ijok), HD Unit","PRIVATE","SITI SARAH WAHIDAH BINTI WAHID;","","","",""
"","","","Klinik Waqaf An-NurMasjid Nurul ImanBatu 8 Ijok  58000 Bestari Jaya  Selangor Darul Ehsan  MALAYSIA","Klinik Waqaf An-Nur (Ijok), HD Unit","( 03)32792490",""
"Pusat Dialisis Davita Batang Berjuntai, HD Unit","PRIVATE","ANBUCHELVAN A/L MUNIANDY;","","","",""
"","","","Pusat Dialisis Davita Batang BerjuntaiNo. 16G & 18G, Jalan Aman Suria  45600 Bestari Jaya  Selangor Darul Ehsan  MALAYSIA","Pusat Dialisis Davita Batang Berjuntai, HD Unit","016-2267683",""
"Pusat Hemodialisis Bestari Jaya, HD Unit","MOH","","","","",""
"","","","Pusat Hemodialisis Bestari JayaKlinik Kesihatan Bestari JayaJalan Kampong  45600 Bestari Jaya  Selangor Darul Ehsan  MALAYSIA","Pusat Hemodialisis Bestari Jaya, HD Unit","( 03)32710104",""
"Bukit Beruntung","","","","","",""
"Pusat Dialisis Yayasan Veteran ATM (Bukit Sentosa), HD Unit","PRIVATE","ZALEHA BINTI SHA'ABAN;","","","",""
"","","","Pusat Dialisis Yayasan Veteran ATM No. 47 & 49, Jln Orkid 1F, Perniagaan Jln OrkidBukit Sentosa  48300 Bukit Beruntung  Selangor Darul Ehsan  MALAYSIA","Pusat Dialisis Yayasan Veteran ATM (Bukit Sentosa), HD Unit","03-60212572","dvetbs@gmail.com"
"Pusat Rawatan Dialisis EAM Dialysis Centre, HD Unit","PRIVATE","CHEW SHIAO SIONG;","","","",""
"","","","Pusat Rawatan Dialisis EAM Dialysis CentreNo. 11-G, 11-1 & 13-G, 13-1, Jalan Adenium2G/11, Pusat Perniagaan Adenium  48300 Bukit Beruntung  Selangor Darul Ehsan  MALAYSIA","Pusat Rawatan Dialisis EAM Dialysis Centre, HD Unit","03-60217678","eamdialysiscentresdnbhd@gmail.com"
"Cheras","","","","","",""
"Pusat Rawatan Dialisis Pusat Dialisis Amal MAAEDICARE (Cheras), HD Unit","PRIVATE","MOHAMMAD SHAZLI BIN ABDUL RAHMAN;","","","",""
"","","","Pusat Rawatan Dialisis Pusat Dialisis Amal MAAEDICARE (Cheras)No. 3, 3A, 5 & 5A, Jalan Perniagaan Masria 1Pust Perniagaan Masria, Batu 9  43200 Cheras  Selangor Darul Ehsan  MALAYSIA","Pusat Rawatan Dialisis Pusat Dialisis Amal MAAEDICARE (Cheras), HD Unit","016-3398765","cheras@maamedicare.org"
"Cyberjaya","","","","","",""
"Hospital Cyberjaya, HD Unit","MOH","ALIA ZUBAIDAH BINTI BAHTAR;","","","",""
"","","","Hospital CyberjayaPersiaran Multimedia, Cyber 11  63000 Cyberjaya  Selangor Darul Ehsan  MALAYSIA","Hospital Cyberjaya, HD Unit","03-88733500  11604","erichaselan@moh.gov.my"
"Pusat Dialisis Mustapha Kamal, HD Unit","PRIVATE","SHAWALUDIN BIN HUSIN;","","","",""
"","","","Pusat Dialisis Mustapha KamalMasjid Cyberjaya 10Persiaran Aspirasi, Cyber 10  63000 Cyberjaya  Selangor Darul Ehsan  MALAYSIA","Pusat Dialisis Mustapha Kamal, HD Unit","016-2959670","pdmmustaphakamal@gedungpenawar.com"
"Pusat Hemodialisis FOMEMA Haemodialysis Cyberjaya, HD Unit","PRIVATE","ABDUL HALIM BIN SHER JUNG;","","","",""
"","","","Pusat Hemodialisis FOMEMA Haemodialysis CyberjayaC-01-08, Tamarind Square,Persiaran Multimedia, Cyber 10  63000 Cyberjaya  Selangor Darul Ehsan  MALAYSIA","Pusat Hemodialisis FOMEMA Haemodialysis Cyberjaya, HD Unit","016-3623177","fh.cyberjaya@fomemadialysis.com.my"
"Pusat Rawatan Dialisis EAM Dialysis Centre (Cyberjaya), HD Unit","PRIVATE","FONG VOON KEN;","","","",""
"","","","Pusat Rawatan Dialisis EAM Dialysis CentreC-G-11 & C-1-11, Jalan Vita 2Plaza Crystal Ville, Lingkaran Cyberpoint Timur  63000 Cyberjaya  Selangor Darul Ehsan  MALAYSIA","Pusat Rawatan Dialisis EAM Dialysis Centre (Cyberjaya), HD Unit","03-83193977","eamdialysiscentresdnbhd@gmail.com"
"Dengkil","","","","","",""
"Pusat Dialisis Davita Kota Warisan, HD Unit","PRIVATE","BAHRIN SHAH BIN BAHARUDIN;","","","",""
"","","","Pusat Dialisis Davita Kota WarisanLot 36G, 38G & 40G, Jasper Square Sunsuria City @ Sepang  43900 Dengkil  Selangor Darul Ehsan  MALAYSIA","Pusat Dialisis Davita Kota Warisan, HD Unit","03-86842402",""
"Pusat Hemodialisis Baheej Haemodialysis Sdn Bhd (Cawangan Jenderam), HD Unit","PRIVATE","RUSLINDA BINTI MUSTAFAR;","","","",""
"","","","Pusat Hemodialisis Baheej Haemodialysis Sdn Bhd (Cawangan Jenderam)No.17G, 17-1 & 18G, 18-1, Jalan JD 1Taman Jenderam Damai  43800 Dengkil  Selangor Darul Ehsan  MALAYSIA","Pusat Hemodialisis Baheej Haemodialysis Sdn Bhd (Cawangan Jenderam), HD Unit","03-87689273","sinarjenderam@gmail.com"
"Pusat Perubatan Dialisis (Dengkil), HD Unit","PRIVATE","NOR HASHIMAH BINTI AMATOKIRAN;","","","",""
"","","","Pusat Perubatan Dialisis DengkilNo. 3, Jalan Seri Delima 1Taman Seri Delima  43800 Dengkil  Selangor Darul Ehsan  MALAYSIA","Pusat Perubatan Dialisis (Dengkil), HD Unit","( 03)87680620","ppddengkil@gmail.com"
"Hulu Langat","","","","","",""
"Pusat Hemodialisis Baheej Haemodialysis Sdn Bhd (Cawangan Hulu Langat), HD Unit","PRIVATE","HANISAH BINTI AKBAR TAJUDIN;","","","",""
"","","","Pusat Hemodialisis Baheej Haemodialysis Sdn Bhd (Cawangan Hulu Langat)No. 19, 19A, 19B & 21, 21A, 21B, Jalan Langat Ceria 4Taman Langat Ceria  43100 Hulu Langat  Selangor Darul Ehsan  MALAYSIA","Pusat Hemodialisis Baheej Haemodialysis Sdn Bhd (Cawangan Hulu Langat), HD Unit","03-90820234","kophealthcare.hululangat@sinarhdu.com"
"Jenjarom","","","","","",""
"Pusat Dialisis Foresight Dialysis Bandar Saujana Putra, HD Unit","PRIVATE","KHAIRUN NADZAR BIN MOHD DAHLAN;","","","",""
"","","","Pusat Dialisis Foresight Dialysis Bandar Saujana PutraNo. 26-G & 28-G, Pusat Perdagangan BSP Jalan SP 5/4,Bandar Saujana Putra  42610 Jenjarom  Selangor Darul Ehsan  MALAYSIA","Pusat Dialisis Foresight Dialysis Bandar Saujana Putra, HD Unit","012-6598289","bandarsaujanaputra@foresightdialysis.com"
"Kajang","","","","","",""
"Kajang Hospital, CAPD Unit","MOH","SADANAH AQASHIAH BINTI MAZLAN;","","","",""
"","","","Hospital KajangJln Semenyih  43000 Kajang  Selangor Darul Ehsan  MALAYSIA","Kajang Hospital, CAPD Unit","03-89133333  1119",""
"Serdang Hospital, CAPD Unit","MOH","GOH BAK LEONG;","","","",""
"","","","CAPD UnitHospital SerdangJalan Puchong  43000 Kajang  Selangor Darul Ehsan  MALAYSIA","Serdang Hospital, CAPD Unit","( 03)89475555  1259",""
"Kajang Hospital, HD Unit","MOH","SADANAH AQASHIAH BINTI MAZLAN;","","","",""
"","","","Haemodialysis UnitHospital KajangJalan Semenyih  43000 Kajang  Selangor Darul Ehsan  MALAYSIA","Kajang Hospital, HD Unit","( 03)89133333  1326 /3262","hdukajang@gmail.com"
"KPJ Kajang Specialist Hospital, HD Unit","PRIVATE","ONG TZE ZEN;","","","",""
"","","","Haemodialysis UnitKPJ Kajang Specialist HospitalBatu 14, Jalan CherasKampung Sungai Kantan  43000 Kajang  Selangor Darul Ehsan  MALAYSIA","KPJ Kajang Specialist Hospital, HD Unit","( 03)87692999  2880","adminoficer@kpjkajang.com"
"Pusat Dialisis Airah, HD Unit","PRIVATE","FADZLIYANA BINTI MOHD YUSOFF;","","","",""
"","","","Pusat Dialisis AirahNo. 15 & 17G, Jalan Putra 8Taman Putra Kajang  43000 Kajang  Selangor Darul Ehsan  MALAYSIA","Pusat Dialisis Airah, HD Unit","( 03)87343697","fadzliyana@yahoo.com"
"Pusat Dialisis Amandanau, HD Unit","PRIVATE","FONG VOON KEN;","","","",""
"","","","Pusat Dialisis AmandanauLot Kedai Tingkat Bawah, No. 6 & 7Pusat Komersil Universiti Tenaga Nasional  43000 Kajang  Selangor Darul Ehsan  MALAYSIA","Pusat Dialisis Amandanau, HD Unit","011-22222202","pdamandanau@gmail.com"
"Pusat Dialisis Davita Bangi, HD Unit","PRIVATE","","","","",""
"","","","Pusat Dialisis Davita BangiNo. 7 & 9, Jalan TTDI Groove 7/1Taman TTDI Groove  43000 Kajang  Selangor Darul Ehsan  MALAYSIA","Pusat Dialisis Davita Bangi, HD Unit","03-87330639",""
"Pusat Dialisis Davita Kajang, HD unit","PRIVATE","","","","",""
"","","","Pusat Dialisis Davita kajangNo. 2, Ground Floor, Jalan KP 1/6Kajang Prima  43000 Kajang  Selangor Darul Ehsan  MALAYSIA","Pusat Dialisis Davita Kajang, HD unit","03-87330269",""
"Pusat Dialisis Nephrocare Global (Cawangan Kajang), HD Unit","PRIVATE","WENDY BINTI LEONG;","","","",""
"","","","Pusat Dialisis Nephrocare Global (Cawangan Kajang)No. 42, Jln TTDI Grove 1/2Tmn TTDI Grove Kajang  43000 Kajang  Selangor Darul Ehsan  MALAYSIA","Pusat Dialisis Nephrocare Global (Cawangan Kajang), HD Unit","( 03)87301723","pusatdialisiskajang.coop@gmail.com"
"Pusat Hemodialysis Harmoni (Sungai Long), HD Unit","PRIVATE","","","","",""
"","","","Pusat Hemodialysis Harmoni (Sungai Long)No. 2, (Lot K54) Ground Floor, Jalan SL 1/12Bandar Sungai Long  43000 Kajang  Selangor Darul Ehsan  MALAYSIA","Pusat Hemodialysis Harmoni (Sungai Long), HD Unit","03-90198052","harmoni_sglong@apmail.bbraun.com"
"Pusat Rawatan Dialisis Farah Mahami, HD Unit","NGO","ZURIMAH BINTI ZAMHURI;","","","",""
"","","","Pusat Rawatan Dialisis Farah Mahami(Yayasan EMKAY)No. 106, 107 & 108, Kompleks Niaga Sungai MerabMajlis Perbandaran Sepang  43000 Kajang  Selangor Darul Ehsan  MALAYSIA","Pusat Rawatan Dialisis Farah Mahami, HD Unit","( 03)89262531","1@gedungpenawar.com"
"Pusat Rawatan Dialisis GSR, HD Unit","PRIVATE","MOHD RADZNIWAN BIN A RASHID;","","","",""
"","","","Pusat Rawatan Dialisis GSR30-G, 30-1 & 31-G, Jalan Awani Bangi 1/1Taman Awani Bangi  43000 Kajang  Selangor Darul Ehsan  MALAYSIA","Pusat Rawatan Dialisis GSR, HD Unit","03-89129292","gsrdialisis@gmail.com"
"Serdang Hospital, HD Unit","MOH","GOH BAK LEONG;","","","",""
"","","","Haemodialysis UnitDepartment of NephrologyHospital SerdangJalan Puchong  43300 Kajang  Selangor Darul Ehsan  MALAYSIA","Serdang Hospital, HD Unit","( 03)89475555  1267 /5286","-"
"Serdang Hospital, Tx Unit","MOH","GOH BAK LEONG;","","","",""
"","","","Renal Transplant Clinic (c/o Haemodialysis Unit)Hospital SerdangJalan Puchong  43000 Kajang  Selangor Darul Ehsan  MALAYSIA","Serdang Hospital, Tx Unit","( 03)89475555  5282",""
"Kajang Hospital, MRRB Unit","MOH","SADANAH AQASHIAH BINTI MAZLAN;","","","",""
"","","","Hospital KajangJalan Semenyih  43000 Kajang  Selangor Darul Ehsan  MALAYSIA","Kajang Hospital, MRRB Unit","-","-"
"Serdang Hospital, MRRB Unit","MOH","GOH BAK LEONG;","","","",""
"","","","Department of NephrologyHospital SerdangJalan Puchong  43000 Kajang  Selangor Darul Ehsan  MALAYSIA","Serdang Hospital, MRRB Unit","( 03)89475555",""
"Kapar","","","","","",""
"Pusat Dialisis Zara, HD Unit","PRIVATE","AKMAIZANIZAM BIN MUHAMMAD;","","","",""
"","","","Pusat Dialisis ZaraNo. 7, Jalan Harapan 3A/KU7Taman Sungai Kapar Indah  42200 Kapar  Selangor Darul Ehsan  MALAYSIA","Pusat Dialisis Zara, HD Unit","( 03)32914668","dialisis.zara@gmail.com"
"Pusat Dialysis Mesra Kapar, HD Unit","PRIVATE","RAMAKRISHNAN A/L SENKODAN;","","","",""
"","","","Pusat Dialysis Mesra KaparNo. 1042, Jalan KaparTaman Sri Kapar  42200 Kapar  Selangor Darul Ehsan  MALAYSIA","Pusat Dialysis Mesra Kapar, HD Unit","( 03)32509397",""
"Kelana Jaya","","","","","",""
"MB Star Rawatan Dialisis (Kelana Jaya), HD Unit","PRIVATE","KAMARULZAMAH BIN ABDUL MANAF;","","","",""
"","","","MB Star Rawatan DialisisNo. EG-05 & 06, Dataran GlomacPusat Bandar Kelana JayaJalan SS6/20A  47301 Kelana Jaya  Selangor Darul Ehsan  MALAYSIA","MB Star Rawatan Dialisis (Kelana Jaya), HD Unit","( 03)78032800","mbstar_dialisis@yahoo.com"
"Klang","","","","","",""
"Sri Kota Medical Centre, CAPD Unit","PRIVATE","","","","",""
"","","","Ward Level 5, CAPD CentreSri Kota Medical CentreJalan Mohet  41000 Klang  Selangor Darul Ehsan  MALAYSIA","Sri Kota Medical Centre, CAPD Unit","03-33757799  7597",""
"Tengku Ampuan Rahimah Hospital, CAPD Unit","MOH","SHAHNAZ BINTI SHAH FIRDAUS KHAN;","","","",""
"","","","CAPD UnitHospital Tengku Ampuan RahimahJalan Langat  41200 Klang  Selangor Darul Ehsan  MALAYSIA","Tengku Ampuan Rahimah Hospital, CAPD Unit","( 03)33757000  1311","capdhtar@gmail.com"
"Asia Renal Care (KL), HD Unit","PRIVATE","SYAMA PRASAD A/L K C A MENON;","","","",""
"","","","Asia Renal Care (KL) Sdn BhdNo. 5 Jalan RengasSouthern Park Klang  41200 Klang  Selangor Darul Ehsan  MALAYSIA","Asia Renal Care (KL), HD Unit","03-33738122",""
"Bakti-NKF Dialysis Centre, HD Unit","NGO","WONG HIN SENG;","","","",""
"","","","Bakti-NKF Dialysis CentreNo. 55 & 57, Jalan Selampit 18Taman Desa Utama  41200 Klang  Selangor Darul Ehsan  MALAYSIA","Bakti-NKF Dialysis Centre, HD Unit","( 03)33239424","klg_nkf@yahoo.com"
"Bukit Tinggi Medical Centre, HD Unit","PRIVATE","KONG WAI YEW;","","","",""
"","","","Bukit Tinggi Medical CentreLot 83211, Persiaran Batu NilamBandar Bukit TinggiMukim Klang  41200 Klang  Selangor Darul Ehsan  MALAYSIA","Bukit Tinggi Medical Centre, HD Unit","03-38843884","-"
"Columbia Asia Hospital Klang, HD Unit","PRIVATE","T KALAISELVAM A/L THEVANDRAN;","","","",""
"","","","Columbia Asia Hospital KlangPT 71153 Jalan Mahkota 1/KU2, Mutiara Bukit Raja 2, KM 2, Off Jalan Meru,  41050 Klang  Selangor Darul Ehsan  MALAYSIA","Columbia Asia Hospital Klang, HD Unit","03-33467999  2068","customercare.klang@columbiaasia.com"
"Dialisis Sri Andalas, HD Unit","PRIVATE","BAHIAH BINTI BAHARUDIN;","","","",""
"","","","Dialisis Sri Andalas Sdn Bhd(Dialisis Permodalan Negeri Selangor Berhad)No. 83, Persiaran Tengku Ampuan RahimahTaman Sri Andalas  41200 Klang  Selangor Darul Ehsan  MALAYSIA","Dialisis Sri Andalas, HD Unit","03-33239892","dsriandalas@gmail.com"
"KPJ Klang Specialist Hospital (1), HD Unit","PRIVATE","HUE TECK LEE @ KHOO AH LEE;","","","",""
"","","","KPJ Klang Specialist HospitalNo. 102, Persiaran Rajawali / KU1Bandar Baru Klang  41150 Klang  Selangor Darul Ehsan  MALAYSIA","KPJ Klang Specialist Hospital (1), HD Unit","( 03)33777888  7895","klgshdialysis@kpjklang.com"
"KPJ Klang Specialist Hospital (2), HD Unit","PRIVATE","HUE TECK LEE @ KHOO AH LEE;","","","",""
"","","","KPJ Klang Specialist HospitalNo. 102, Persiaran Rajawali / KU1Bandar Baru Klang  41150 Klang  Selangor Darul Ehsan  MALAYSIA","KPJ Klang Specialist Hospital (2), HD Unit","03-33777895  7892",""
"Pantai Hospital Klang, HD Unit","PRIVATE","WONG MUN HOE;","","","",""
"","","","Haemodialysis CentrePantai Hospital KlangPantai Medical Centre Sdn BhdLot 5921, Persiaran Raja Muda Musa  41200 Klang  Selangor Darul Ehsan  MALAYSIA","Pantai Hospital Klang, HD Unit","03-32585500  348 / 351",""
"Persatuan Haemodialysis Klang, HD Unit","NGO","SHAARI BALAKRISHNA B ABDULLAH;","","","",""
"","","","Persatuan Haemodialysis KlangNo. 2630, Wisma Rotary,Persiaran Tengku Ampuan Rahimah  41200 Klang  Selangor Darul Ehsan  MALAYSIA","Persatuan Haemodialysis Klang, HD Unit","03-33822762","hakadmin@gmail.com"
"Pusat Dialisis Davita Klang, HD Unit","PRIVATE","CHUA HING KIAT;","","","",""
"","","","Pusat Dialisis Davita KlangNo. 59 & 61, Jalan Ramin 1Bandar Botanic  41200 Klang  Selangor Darul Ehsan  MALAYSIA","Pusat Dialisis Davita Klang, HD Unit","03-33221576",""
"Pusat Dialisis Davita Meru, HD Unit","PRIVATE","CHUA HING KIAT;","","","",""
"","","","Pusat Dialisis Davita Meru4 - 6, Jalan Sejahtera 8/KU8Taman Meru Sejahtera  41050 Klang  Selangor Darul Ehsan  MALAYSIA","Pusat Dialisis Davita Meru, HD Unit","03-33920166",""
"Pusat Dialisis Dhuha, HD Unit","PRIVATE","AKMAIZANIZAM BIN MUHAMMAD;","","","",""
"","","","Pusat Dialisis DhuhaNo. 28, Jalan Harapan 3/KU 7Taman Sungai Kapar Indah  42200 Klang  Selangor Darul Ehsan  MALAYSIA","Pusat Dialisis Dhuha, HD Unit","03-32915668","pusatdialisisdhuha@gmail.com"
"Pusat Dialisis MAIS Cawangan Kapar, HD Unit","PRIVATE","NOR HAYATI BINTI MD ARIS;","","","",""
"","","","Pusat Dialisis MAIS Cawangan Kapar(Yayasan Islam Darul Ehsan)Masjid Kiyai Hj Abdullah UmarBatu 4, Jalan Kapar  42100 Klang  Selangor Darul Ehsan  MALAYSIA","Pusat Dialisis MAIS Cawangan Kapar, HD Unit","( 03)32906740","dmaiskpr@yahoo.com"
"Pusat Dialisis Mukmin Sri Andalas, HD Unit","PRIVATE","ZAINAL ABIDIN BIN AWANG;","","","",""
"","","","Pusat Dialisis Mukmin Sri AndalasNo. 9 & 11, Jalan Sri Sarawak 20BTaman Sri Andalas  41200 Klang  Selangor Darul Ehsan  MALAYSIA","Pusat Dialisis Mukmin Sri Andalas, HD Unit","( 03)33232794","pdmandalas@gedungpenawar.com"
"Pusat Dialisis Nephrocare (Klang), HD Unit","PRIVATE","SHYMA DEVI A/P K RAMU;","","","",""
"","","","Pusat Dialisis Nephrocare (Klang)No. 21 & 23, Lorong Bayu Tinggi 4C / KS6Batu Unjur  41200 Klang  Selangor Darul Ehsan  MALAYSIA","Pusat Dialisis Nephrocare (Klang), HD Unit","( 03)33230865","klang.nephrocare@fmc-asia.com"
"Pusat Dialisis NKF-Kelab Apex, HD Unit","NGO","MUHAMMAD IQBAL GULAM;","","","",""
"","","","Pusat Dialisis NKF-Kelab ApexNo. 2100-2102, Jalan MeruKawasan 17  41050 Klang  Selangor Darul Ehsan  MALAYSIA","Pusat Dialisis NKF-Kelab Apex, HD Unit","( 03)33417009","klg2_nkf@yahoo.com"
"Pusat Dialisis PERKESO (Cawangan Klang), HD Unit","PRIVATE","","","","",""
"","","","Pusat Dialisis PERKESO (Cawangan Klang)Aras Bawah, Pejabat Perkeso KlangLebuh Batu Nilam, Bandar Bukit Tinggi 1Pelabuhan Klang  41200 Klang  Selangor Darul Ehsan  MALAYSIA","Pusat Dialisis PERKESO (Cawangan Klang), HD Unit","03-33233957","ncm.klang@nephro.com.my"
"Pusat Dialisis Rakyat Sementa, HD Unit","PRIVATE","KALAICHELVAN A/L BATUMALAI;","","","",""
"","","","Pusat Dialisis Rakyat Sementa(Gedung Penawar Sdn Bhd)No. 7, 9 & 11, Jalan Sungai Kapar Indah 3GTaman Sungai Kapar Indah  41700 Klang  Selangor Darul Ehsan  MALAYSIA","Pusat Dialisis Rakyat Sementa, HD Unit","( 03)32912919","pdmsementa@gedungpenawar.com"
"Pusat Dialysis Bandar Parkland, HD Unit","PRIVATE","THARMARATNAM A/L RASANAYAGAM;","","","",""
"","","","No. 106 & 108, Jalan JED 4Bandar Parkland  41200 Klang  Selangor Darul Ehsan  MALAYSIA","Pusat Dialysis Bandar Parkland, HD Unit","03-33190835","dr.pdbpparkland@yahoo.com"
"Pusat Dialysis Nur Kasih (Cawangan Klang), HD Unit","PRIVATE","ELANGKEERAN A/L M KRISHNAN;","","","",""
"","","","Pusat Dialysis Nur Kasih (Cawangan Klang)No. 73 & 75, Jalan Temenggung 20, Off Jalan Sungai JatiTaman Sentosa Perdana  41200 Klang  Selangor Darul Ehsan  MALAYSIA","Pusat Dialysis Nur Kasih (Cawangan Klang), HD Unit","03-51668601","pdnkklang@gmail.com"
"Pusat Hemodialisis Waqaf An-nur Bandar Baru Sultan Suleiman, HD Unit","PRIVATE","LIM CHOO GEE;","","","",""
"","","","Pusat Hemodialisis Waqaf An-nur Bandar Baru Sultan SuleimanLot 41001, Masjid As SaadahBandar Baru Sultan SuleimanKawasan 14  42000 Klang  Selangor Darul Ehsan  MALAYSIA","Pusat Hemodialisis Waqaf An-nur Bandar Baru Sultan Suleiman, HD Unit","03-31760016","klgshdialysis@kpjklang.com"
"Pusat Perubatan Pakar Sri Kota, HD Unit","PRIVATE","","","","",""
"","","","Haemodialysis CentrePusat Perubatan Pakar Sri Kota(Southern Medicare Sdn Bhd)Jalan Mohet  41000 Klang  Selangor Darul Ehsan  MALAYSIA","Pusat Perubatan Pakar Sri Kota, HD Unit","( 03)33757648",""
"Pusat Rawatan Hemodialisis Nefro I Care, HD Unit","PRIVATE","MAGEESVAARY A/P JAYAVEL;","","","",""
"","","","Pusat Rawatan Hemodialisis Nefro I CareNo.13G & 15G, Jalan Permata 1/KS09Pusat Perniagaan BestariTaman Perindustrian Air Hitam  41200 Klang  Selangor Darul Ehsan  MALAYSIA","Pusat Rawatan Hemodialisis Nefro I Care, HD Unit","011-10850440","nefroicare2022@gmail.com"
"Rawatan Dialisis Bukit Tinggi, HD Unit","PRIVATE","GANESAN PARTHIBAN;","","","",""
"","","","Rawatan Dialisis Bukit Tinggi No. 17-00-1, Lorong Batu Nilam 1EBandar Bukit Tinggi  42100 Klang  Selangor Darul Ehsan  MALAYSIA","Rawatan Dialisis Bukit Tinggi, HD Unit","( 03)33241504","rdbt.klang@gmail.com"
"SJAM-KPS Haemodialysis Centre 1 (Raja Muda Musa), HD Unit","NGO","LAU SIEW GEK;","","","",""
"","","","SJAM-KPS Haemodialysis CentreSt. John Ambulans Malaysia Kawasan Pantai SelangorNo. 100,  Persiaran Raja Muda Musa  41100 Klang  Selangor Darul Ehsan  MALAYSIA","SJAM-KPS Haemodialysis Centre 1 (Raja Muda Musa), HD Unit","( 03)33729410","st1@sjamsde.org.my"
"SJAM-KPS Pusat Hemodialisis Klang (Station 2), HD Unit","NGO","LAU SIEW GEK;","","","",""
"","","","SJAM-KPS Pusat Hemodialisis Klang (Station 2)No. 16, Lorong Pokok Sakat  41100 Klang  Selangor Darul Ehsan  MALAYSIA","SJAM-KPS Pusat Hemodialisis Klang (Station 2), HD Unit","( 03)33747399","st2@sjamsde.org.my"
"Tengku Ampuan Rahimah Hospital, HD Unit","MOH","SHAHNAZ BINTI SHAH FIRDAUS KHAN;","","","",""
"","","","Haemodialysis UnitHospital Tengku Ampuan RahimahJalan Langat  41200 Klang  Selangor Darul Ehsan  MALAYSIA","Tengku Ampuan Rahimah Hospital, HD Unit","( 03)33757000  1411","hduhtar@gmail.com"
"Sri Kota Medical Centre, Tx Unit","PRIVATE","LOO CHEE YEAN;","","","",""
"","","","Renal Transplant Clinicc/o Haemodialysis CentreSri Kota Medical CentreJalan Mohet  41000 Klang  Selangor Darul Ehsan  MALAYSIA","Sri Kota Medical Centre, Tx Unit","( 03)33733636  7106",""
"Tengku Ampuan Rahimah Hospital, Tx Unit","MOH","SHAHNAZ BINTI SHAH FIRDAUS KHAN;","","","",""
"","","","Renal Transplant Clinicc/o Haemodialysis UnitHospital Tengku Ampuan RahimahJalan Langat  41200 Klang  Selangor Darul Ehsan  MALAYSIA","Tengku Ampuan Rahimah Hospital, Tx Unit","( 03)33757000  1411","htarnephro@gmail.com"
"Bukit Tinggi Medical Centre, MRRB Unit","PRIVATE","KONG WAI YEW;","","","",""
"","","","Bukit Tinggi Medical CentreLot 83211, Persiaran Batu NilamBandar Bukit Tinggi, Mukim Klang  41200 Klang  Selangor Darul Ehsan  MALAYSIA","Bukit Tinggi Medical Centre, MRRB Unit","03-38843884  3629",""
"Tengku Ampuan Rahimah Hospital, MRRB Unit","MOH","","","","",""
"","","","Department of MedicineHospital Tengku Ampuan RahimahJalan Langat  41200 Klang  Selangor Darul Ehsan  MALAYSIA","Tengku Ampuan Rahimah Hospital, MRRB Unit","( 03)33757000  1448",""
"Kuala Kubu Bharu","","","","","",""
"Kuala Kubu Bharu Hospital, HD Unit","MOH","","","","",""
"","","","Haemodialysis UnitKuala Kubu Bharu Hospital  44000 Kuala Kubu Bharu  Selangor Darul Ehsan  MALAYSIA","Kuala Kubu Bharu Hospital, HD Unit","( 03)60641333  243 / 223","h_kkb@moh.gov.my"
"Pusat Dialisis Mediway (Cawangan Kuala Kubu Bharu), HD Unit","PRIVATE","GANESHWARAN A/L K. MUTHUSAMY;","","","",""
"","","","Pusat Dialisis Mediway (Cawangan Kuala Kubu Bharu)Tingkat Bawah & Tingkat Atas, Lot 34, Sek 7Jalan Dato Tabal  44000 Kuala Kubu Bharu  Selangor Darul Ehsan  MALAYSIA","Pusat Dialisis Mediway (Cawangan Kuala Kubu Bharu), HD Unit","03-60643781","mediwaydialisiskkb@gmail.com"
"Kuala Lumpur","","","","","",""
"Hospital Tunku Azizah, Kuala Lumpur (Paed), MRRB Unit","MOH","YAP YOK CHIN;","","","",""
"","","","Ward 9 C, Paediatric Nephrology & DialysisHospital Tunku Azizah Kuala LumpurJalan Raja Muda Abdul AzizKampung Baru   Kuala Lumpur  Selangor Darul Ehsan  MALAYSIA","Hospital Tunku Azizah, Kuala Lumpur (Paed), MRRB Unit","-","-"
"Kuala Selangor","","","","","",""
"Pusat Dialisis MAIS, HD Unit","NGO","NOR HAYATI BINTI MD ARIS;","","","",""
"","","","Pusat Dialisis MAISNo. 31 & 33, Jalan Bendahara 1/2Taman Bendahara  45000 Kuala Selangor  Selangor Darul Ehsan  MALAYSIA","Pusat Dialisis MAIS, HD Unit","( 03)32896806","roslinhami@yahoo.com"
"Pusat Dialisis Mesra (Kuala Selangor), HD Unit","PRIVATE","RAMAKRISHNAN A/L SENKODAN;","","","",""
"","","","Pusat Dialisis Mesra Kuala SelangorNo. 6 & 8, Jalan Bendahara 1Taman Bendahara  45000 Kuala Selangor  Selangor Darul Ehsan  MALAYSIA","Pusat Dialisis Mesra (Kuala Selangor), HD Unit","( 03)32811102","naawinkumar26@gmail.com"
"SJAM-KPS Haemodialysis Centre 6 (Kuala Selangor), HD Unit","NGO","CHONG YIP BOON;","","","",""
"","","","SJAM-KPS Haemodialysis Kuala Selangor (St. 6)St John Ambulans Malaysia, Kawasan Pantai SelangorNo. 3-C, Jalan Sultan Ibrahim  45000 Kuala Selangor  Selangor Darul Ehsan  MALAYSIA","SJAM-KPS Haemodialysis Centre 6 (Kuala Selangor), HD Unit","011-63425005","st6@sjamsde.org.my"
"Petaling Jaya","","","","","",""
"Assunta Hospital, CAPD Unit","PRIVATE","LOURDES DAVA RAJA CURUZ DURAIJAH;","","","",""
"","","","Assunta HospitalLot 68, Jalan Templer  46990 Petaling Jaya  Selangor Darul Ehsan  MALAYSIA","Assunta Hospital, CAPD Unit","( 03)78723180","info@assunta.com.my"
"Assunta Hospital, HD Unit","PRIVATE","LOURDES DAVA RAJA CURUZ DURAIJAH;","","","",""
"","","","Kidney and Dialysis UnitAssunta HospitalJalan Templer  46990 Petaling Jaya  Selangor Darul Ehsan  MALAYSIA","Assunta Hospital, HD Unit","( 03)78723186","info@assunta.com.my"
"Damansara Specialist Hospital, HD Unit","PRIVATE","JEYABALAN A/L VELAYUTHAM;","","","",""
"","","","Haemodialysis CentreDamansara Specialist HospitalNo. 119, Jalan SS20/10Damansara Utama  47400 Petaling Jaya  Selangor Darul Ehsan  MALAYSIA","Damansara Specialist Hospital, HD Unit","( 03)77181088","mastura@kpjdamansara.com"
"Healthcare Dialysis Centre, HD Unit","PRIVATE","THYE YUEN LIN;","","","",""
"","","","Healthcare Dialysis CentreNo. 41, Jalan 6/31  46000 Petaling Jaya  Selangor Darul Ehsan  MALAYSIA","Healthcare Dialysis Centre, HD Unit","( 03)77836423","healthcaredialysis@gmail.com"
"MDZ Haemodialysis Centre, HD Unit","PRIVATE","HANAFIAH BIN BASHIRUN;","","","",""
"","","","MDZ Haemodialysis Centre Sdn BhdNo. 18, Jalan PJS 5/28BPetaling Jaya Commercial Centre (PJCC)  46150 Petaling Jaya  Selangor Darul Ehsan  MALAYSIA","MDZ Haemodialysis Centre, HD Unit","( 03)77729213","mdzhaemodialysis@yahoo.com.my"
"Mediway Dialysis, HD Unit","PRIVATE","THYE YUEN LIN;","","","",""
"","","","Mediway DialysisLot-A-G-1 Ground Floor8 Avenue, Jalan Sg Jernih 8/1Seksyen 8  46050 Petaling Jaya  Selangor Darul Ehsan  MALAYSIA","Mediway Dialysis, HD Unit","03-79321329","mediwaydialysis@gmail.com"
"Mynephro Dialysis Sdn Bhd, HD Unit","PRIVATE","KHAIRUN NADZAR BIN MOHD DAHLAN;","","","",""
"","","","Mynephro Dialysis Sdn BhdNo. 1, Jalan PJU 10/10ESaujana Damansara  47830 Petaling Jaya  Selangor Darul Ehsan  MALAYSIA","Mynephro Dialysis Sdn Bhd, HD Unit","( 03)61514114","mynephro@gmail.com"
"Persatuan Dialisis Kurnia Petaling Jaya, HD Unit","NGO","CAROLINE HO MEI LI;","","","",""
"","","","Persatuan Dialisis Kurnia Petaling Jaya SelangorNo. 23 & 25 Jalan PJU 6A/3AKayu Ara Business Park  47400 Petaling Jaya  Selangor Darul Ehsan  MALAYSIA","Persatuan Dialisis Kurnia Petaling Jaya, HD Unit","( 03)77256095","pdk2325@gmail.com"
"Persatuan Dialisis Masjid Jamek Sultan Abdul Aziz, HD Unit","NGO","NOR FADHLINA BINTI ZAKARIA;","","","",""
"","","","Persatuan Dialisis Masjid Jamek Sultan Abdul Aziz(Persatuan Dialisis Masjid Jamek Sultan Abdul Aziz Petaling Jaya, Selangor)Aras 1, Masjid Jamek Sultan Abdul AzizJalan Templer  46000 Petaling Jaya  Selangor Darul Ehsan  MALAYSIA","Persatuan Dialisis Masjid Jamek Sultan Abdul Aziz, HD Unit","( 03)77728347","pdmasjid@yahoo.com"
"Pusat Dialisis Davita Kota Damansara, HD Unit","PRIVATE","WONG CHEW MING;","","","",""
"","","","Pusat Dialisis Davita Kota DamansaraNo. 65-G & 67-G, Jalan Cecawi 6/33Seksyen 6, Kota Damansara  47810 Petaling Jaya  Selangor Darul Ehsan  MALAYSIA","Pusat Dialisis Davita Kota Damansara, HD Unit","017-9123218","Mohd.Alamin.Lop@davita.com"
"Pusat Dialisis ISUN Dialysis Centre (Ara Damansara), HD Unit","PRIVATE","ALEX LEONG VUI BENG;","","","",""
"","","","Pusat Dialisis ISUN dialysis Centre (Ara Damansara)M-G-4 & M-G-5, Block M, Jalan PJU 1A/41BPusat Dagangan NZX, Ara Jaya  47301 Petaling Jaya  Selangor Darul Ehsan  MALAYSIA","Pusat Dialisis ISUN Dialysis Centre (Ara Damansara), HD Unit","03-78850828","isundialysis_ad@lifecare.com.my"
"Pusat Dialisis NKF - Dato' Dr GA Sreenevasan, HD Unit","NGO","SHYMA DEVI A/P K RAMU;","","","",""
"","","","Pusat Dialisis NKF - Dato' Dr GA SreenevasanNo. 68, Jalan 14/29  46100 Petaling Jaya  Selangor Darul Ehsan  MALAYSIA","Pusat Dialisis NKF - Dato' Dr GA Sreenevasan, HD Unit","( 03)79549048  234","pjb_nkf@yahoo.com"
"Pusat Dialisis NKF-Chempaka, HD Unit","NGO","","","","",""
"","","","Pusat Dialisis NKF-Chempaka10, PJ 21 Commercial CentreJln SS3/39  47300 Petaling Jaya  Selangor Darul Ehsan  MALAYSIA","Pusat Dialisis NKF-Chempaka, HD Unit","03-78650971","cpk_nkf@yahoo.com"
"Pusat Dialisis Rakyat Taman Medan, HD Unit","PRIVATE","SUZAIDA BINTI ABDUL WAHAB;","","","",""
"","","","Pusat Dialisis Rakyat Taman MedanNo. 11A-1, Jalan PJS 3/32Taman Sri Manja  46000 Petaling Jaya  Selangor Darul Ehsan  MALAYSIA","Pusat Dialisis Rakyat Taman Medan, HD Unit","03-77721139","pdmtamanmedan@gedungpenawar.com"
"Pusat Dialisis Renal Care Dialysis Services Sdn Bhd, HD Unit","PRIVATE","THIRUVENTHIRAN A/L THILAGANATHAN;","","","",""
"","","","Pusat Dialisis Renal Care Dialysis Services Sdn BhdNo. 51 & 53, Jalan SS 23/15Taman Sea  47400 Petaling Jaya  Selangor Darul Ehsan  MALAYSIA","Pusat Dialisis Renal Care Dialysis Services Sdn Bhd, HD Unit","03-78804121","nuratiqah.azman@fmc-asia.com"
"Pusat Dialisis Touch, HD Unit","NGO","CAROLINE HO MEI LI;","","","",""
"","","","Pusat Dialisis TouchNo. 26 & 28, Jalan PJU 5/16Dataran Sunway, Kota Damansara  47810 Petaling Jaya  Selangor Darul Ehsan  MALAYSIA","Pusat Dialisis Touch, HD Unit","( 03)61577520","touch@touchdialysis.org"
"Pusat Dialysis Pertama Sri Manja, HD Unit","PRIVATE","MOHD FAIZ BIN MASHOR;","","","",""
"","","","Pusat Dialysis Sri Manja(Beyond Medicare Sdn Bhd)16A, Ground Floor, Jalan PJS 1/46Taman Petaling Utama  46150 Petaling Jaya  Selangor Darul Ehsan  MALAYSIA","Pusat Dialysis Pertama Sri Manja, HD Unit","03-77702588","info@beyondmedicare.com.my"
"Pusat Hemodialisis Fasa (Kg Medan), HD Unit","PRIVATE","MOHD RAHMAN BIN OMAR;","","","",""
"","","","Pusat Hemodialisis FasaFascicle Assets Sdn BhdNo. J-G-13, Blok J, Medan JayaJalan PJS 2/1, Off Jalan Kelang Lama, Kg Medan  46000 Petaling Jaya  Selangor Darul Ehsan  MALAYSIA","Pusat Hemodialisis Fasa (Kg Medan), HD Unit","( 03)77816267","abdaimin93@gmail.com"
"Pusat Hemodialisis Fasa (Sri Manja), HD Unit","PRIVATE","MOHD JOHAN BIN MOHD JOHARI;","","","",""
"","","","Pusat Hemodialisis FasaNo. 29-30, Jalan PJS 3/59, Sri Manja Square 11Taman Sri Manja  46000 Petaling Jaya  Selangor Darul Ehsan  MALAYSIA","Pusat Hemodialisis Fasa (Sri Manja), HD Unit","( 03)77816267","abdaimin93@gmail.com"
"Pusat Hemodialysis Harmoni (Kota Damansara), HD Unit","PRIVATE","PRITHVY LINGHAM A/L P V LINGHAM;","","","",""
"","","","Pusat Hemodialysis Harmoni (Kota Damansara)NO. G-63A-G & NO.G-65-G, JALAN TEKNOLOGI 3/9,BISTARI 'DE' KOTA,KOTA DAMANSARA,PJU 5,  47810 Petaling Jaya  Selangor Darul Ehsan  MALAYSIA","Pusat Hemodialysis Harmoni (Kota Damansara), HD Unit","03-61421052","harmoni_kotadsara@bbraun.com"
"Renal Associates, HD Unit","PRIVATE","MAISARAH BINTI JALALONMUHALI;","","","",""
"","","","Renal Associates Sdn BhdNo. 85, Jalan Gasing  46000 Petaling Jaya  Selangor Darul Ehsan  MALAYSIA","Renal Associates, HD Unit","( 03)79543888","renal.associatessdnbhd@yahoo.com"
"Thomson Hospital Kota Damansara, HD Unit","PRIVATE","","","","",""
"","","","Dialysis Centre Thomson Hospitals Sdn Bhd(Tropicana Medical Centre)1st Floor, No. 11, Jalan Teknologi, Taman Sains SelangorPJU 5, Kota Damansara  47810 Petaling Jaya  Selangor Darul Ehsan  MALAYSIA","Thomson Hospital Kota Damansara, HD Unit","( 03)62871111  8139","Thomsonclinic@diaverum.com"
"Yayasan Kebajikan SSL, HD Unit","NGO","LIM SOO KUN;","","","",""
"","","","Yayasan Kebajikan SSL HemodialisisNo. 9, Jalan 5, Section 1 (1/5)  46000 Petaling Jaya  Selangor Darul Ehsan  MALAYSIA","Yayasan Kebajikan SSL, HD Unit","( 03)77824092","management@sausenglum.org"
"Assunta Hospital, Tx Unit","PRIVATE","TAN HEE WU;","","","",""
"","","","Kidney and Dialysis UnitAssunta HospitalJalan Templer  46990 Petaling Jaya  Selangor Darul Ehsan  MALAYSIA","Assunta Hospital, Tx Unit","( 03)78723186","info@assunta.com.my"
"Tan Medical Renal Clinic, Tx Unit","PRIVATE","TAN HEE WU;","","","",""
"","","","Healthcare Dialysis CentreNo. 41, Tingkat 1, Jalan 6/31  46300 Petaling Jaya  Selangor Darul Ehsan  MALAYSIA","Tan Medical Renal Clinic, Tx Unit","( 03)77836423",""
"Puchong","","","","","",""
"BBA (Puchong) Dialysis Centre, HD Unit","PRIVATE","YASMIN @ YASMIN JAYADEVAN;","","","",""
"","","","B. Braun Avitum (Puchong) Dialysis Centre(B. Braun Avitum Avitum Renal Services Sdn Bhd)No. 8-0 & 8-1, Jalan Puteri 4/2, Bandar Puteri  47100 Puchong  Selangor Darul Ehsan  MALAYSIA","BBA (Puchong) Dialysis Centre, HD Unit","( 03)80600863","bars_puchong@apmail.bbraun.com"
"MB Star Rawatan Dialisis Puchong Utama, HD Unit","PRIVATE","KAMARULZAMAH BIN ABDUL MANAF;","","","",""
"","","","MB Star Rawatan Dialisis Puchong UtamaNo. 3,3A & 5, Jalan PU 7/1Pusat Bandar Puchong Utama  47100 Puchong  Selangor Darul Ehsan  MALAYSIA","MB Star Rawatan Dialisis Puchong Utama, HD Unit","( 03)80628068","mbstar_dialisis@yahoo.com"
"Pusat Dialisis Davita Puchong, HD Unit","PRIVATE","JAIDEEP SINGH A/L AWTAR;","","","",""
"","","","Pusat Dialisis Davita PuchongNo. 20 & 22G, Jalan OP 1/5Pusat Perdagangan One Puchong  47160 Puchong  Selangor Darul Ehsan  MALAYSIA","Pusat Dialisis Davita Puchong, HD Unit","03-80769909","NoorHafizah.MohdZaini@davita.com"
"Pusat Dialisis Mediway (Cawangan Bandar Puteri Puchong), HD Unit","PRIVATE","ZAZALI @ ZALALI BIN OTHMAN;","","","",""
"","","","Pusat Dialisis Mediway (Cawangan Bandar Puteri Puchong)No. 5 & 5A, Jalan Puteri 7/9Bandar Puteri  47100 Puchong  Selangor Darul Ehsan  MALAYSIA","Pusat Dialisis Mediway (Cawangan Bandar Puteri Puchong), HD Unit","010-2901732","mdpuchong22@gmail.com"
"Syukur Dialisis (Puchong), HD Unit","PRIVATE","ZAZALI @ ZALALI BIN OTHMAN;","","","",""
"","","","Syukur Dialisis (Syukur Elit Sdn Bhd)No. 102A, Jalan Puteri 5/1Bandar Puteri  47100 Puchong  Selangor Darul Ehsan  MALAYSIA","Syukur Dialisis (Puchong), HD Unit","( 03)80605380","1@yahoo.com"
"Yayasan Kebajikan SSL Puchong, HD Unit","NGO","NG KOK PENG;","","","",""
"","","","Yayasan Kebajikan SSL HemodialisisLot PT 39480, Jalan Industri PBP3Taman Industri, Pusat Bandar Puchong  47100 Puchong  Selangor Darul Ehsan  MALAYSIA","Yayasan Kebajikan SSL Puchong, HD Unit","( 03)58829006","management@sausenglum.org"
"Rawang","","","","","",""
"DSS Dialysis Centre (Rawang), HD Unit","PRIVATE","","","","",""
"","","","Davita Seri Setia Dialysis Centre (Rawang)No. 27 G, Wisma PERKESO, Jalan Setia Rawang 1Taman Setia Rawan, KM 25 Jalan Ipoh  48000 Rawang  Selangor Darul Ehsan  MALAYSIA","DSS Dialysis Centre (Rawang), HD Unit","( 03)60915819",""
"KPJ Rawang Specialist Hospital, HD Unit","PRIVATE","SHAFIRA BINTI MOHAMAD SHA;","","","",""
"","","","Haemodialysis UnitKPJ Rawang Specialist Hospital Jalan Rawang, Bandar Baru Rawang  48000 Rawang  Selangor Darul Ehsan  MALAYSIA","KPJ Rawang Specialist Hospital, HD Unit","( 03)60998999  8937","Customerservice@kpjrawang.com"
"Pusat Dialisis Davita Tamansari, HD Unit","PRIVATE","MUHAMMAD HAZWAN ASYRAF BIN MD TOP;","","","",""
"","","","Pusat Dialisis Davita TamansariNo. 29-G, 30-G, 31-G & 32-G, Kemaris AvenueJalan Kawasan Perindustrian Rawangsungai Bakau  48000 Rawang  Selangor Darul Ehsan  MALAYSIA","Pusat Dialisis Davita Tamansari, HD Unit","03-60923793",""
"Pusat Dialisis Pertama Rawang, HD Unit","PRIVATE","NOORULAMIN BIN ABDUL RAHMAN;","","","",""
"","","","Pusat Dialisis Pertama RawangNo. 63, Jalan Bandar Rawang 1Pusat Bandar Rawang  48000 Rawang  Selangor Darul Ehsan  MALAYSIA","Pusat Dialisis Pertama Rawang, HD Unit","( 03)60909077","-"
"Pusat Hemodialisis Nur'ain, HD Unit","PRIVATE","","","","",""
"","","","Pusat Hemodialisis Nur'ain(Nephron First Resources)No. 21 & 22, Jalan R2/2Rawang Integrated Industrial Park  48000 Rawang  Selangor Darul Ehsan  MALAYSIA","Pusat Hemodialisis Nur'ain, HD Unit","( 03)60934100","dialisisnurain@gmail.com"
"Pusat Hemodialisis Syifa (Bukit Beruntung), HD Unit","PRIVATE","","","","",""
"","","","Pusat Hemodialisis Syifa (Cawangan Bukit Beruntung)No. 25, 27 & 29 (Grd Flr), Jalan Ademium 2G/10Pusat Perniagaan Adenium, Seksyen BB5, Bukit Beruntung  48300 Rawang  Selangor Darul Ehsan  MALAYSIA","Pusat Hemodialisis Syifa (Bukit Beruntung), HD Unit","019-3563532","ncmbb2022@gmail.com"
"Pusat Rawatan Dialisis AZ Yusra Dialysis Sdn Bhd, HD Unit","PRIVATE","FAIZATUL AZIMAH BINTI ABDULLAH;","","","",""
"","","","Pusat Rawatan Dialisis AZ Yusra Dialysis Sdn BhdNo.2B-1-12, Jalan Mutiara 3Rawang Mutiara Business Centre  48000 Rawang  Selangor Darul Ehsan  MALAYSIA","Pusat Rawatan Dialisis AZ Yusra Dialysis Sdn Bhd, HD Unit","03-60943735","az.yusra.dialysis@gmail.com"
"Pusat Rawatan Dialisis Iris, HD Unit","PRIVATE","MUHAMMAD RUSHDAN BIN ADZAN;","","","",""
"","","","Pusat Rawatan Dialisis IrisNo. 1, No. 3 & No. 3-1, Jalan Jenjarum 3D/1,Sek BB9, Perniagaan Jalan Jenjarum  48300 Rawang  Selangor Darul Ehsan  MALAYSIA","Pusat Rawatan Dialisis Iris, HD Unit","03-60210505","irishealthcare.my@gmail.com"
"SJAM-KPS Haemodialysis Centre 5 (Rawang), HD Unit","NGO","","","","",""
"","","","SJAM-KPS Haemodialysis CentreSt John Ambulans Malaysia, Kawasan Pantai SelangorNo. 52, Jalan Setia Rawang 1Taman Setia Rawang  48000 Rawang  Selangor Darul Ehsan  MALAYSIA","SJAM-KPS Haemodialysis Centre 5 (Rawang), HD Unit","( 03)60922005","st5@sjamsde.org.my"
"SJAM-KPS Pusat Hemodialisis Tasik Puteri (Station 13), HD Unit","NGO","NG KOK PENG;","","","",""
"","","","SJAM-KPS Pusat Hemodialisis Tasik Puteri (Station 13)No. 7G & 9G, Jalan Hijau 5/2Lembah Hijau, Bandar Tasik Puteri  48020 Rawang  Selangor Darul Ehsan  MALAYSIA","SJAM-KPS Pusat Hemodialisis Tasik Puteri (Station 13), HD Unit","( 03)60345952","st13@sjamsde.org.my"
"Sabak Bernam","","","","","",""
"Pusat Dialysis Davita Sabak Bernam, HD Unit","PRIVATE","KOH CHOON HE;","","","",""
"","","","Pusat Dialysis Davita Sabak Bernam(Quality Dialysis Care Sdn Bhd)No. 9 & 11, Jalan Menteri  45200 Sabak Bernam  Selangor Darul Ehsan  MALAYSIA","Pusat Dialysis Davita Sabak Bernam, HD Unit","03-32161719","nizaieza@gmail.com"
"Tengku Ampuan Jemaah Hospital, HD Unit","MOH","NORLEEN BINTI ZULKARNAIN SIM;","","","",""
"","","","Haemodialysis UnitHospital Tengku Ampuan Jemaah  45200 Sabak Bernam  Selangor Darul Ehsan  MALAYSIA","Tengku Ampuan Jemaah Hospital, HD Unit","( 03)32163333  258 / 263","hduhtaj@gmail.com"
"Sekinchan","","","","","",""
"Nefrocare Haemodialysis (SKC) Sdn Bhd, HD Unit","PRIVATE","TAN SONG CHOOI;","","","",""
"","","","Nefrocare Haemodialysis (SKC) Sdn Bhd12.1 & 12.2, Jalan Perdana 2,  45400 Sekinchan  Selangor Darul Ehsan  MALAYSIA","Nefrocare Haemodialysis (SKC) Sdn Bhd, HD Unit","( 03)51913905","nefrocarehaemodialysisskc@gmail.com"
"Semenyih","","","","","",""
"Dialisis Al-Ariff (Eco Majestic), HD Unit","PRIVATE","VIJENDRAN A/L SUPPAYA;","","","",""
"","","","Dialisis Al-Ariff (Eco Majestic)42A, Jalan Eco Majestic 10/1D,Eco Majestic  43500 Semenyih  Selangor Darul Ehsan  MALAYSIA","Dialisis Al-Ariff (Eco Majestic), HD Unit","03-87249022","alariffecomajectic@gmail.com"
"Kaizenbros Dialysis Centre, HD Unit","PRIVATE","ZURIMAH BINTI ZAMHURI;","","","",""
"","","","Kaizenbros Dialysis CentreNo. 29G,  Jalan 5/10, Seksyen 5Bandar Rinching  43500 Semenyih  Selangor Darul Ehsan  MALAYSIA","Kaizenbros Dialysis Centre, HD Unit","( 03)87270791","medithree.kaizenbros@gmail.com"
"Pusat Hemodialisis Harmoni Hemodialisis (Cawangan Eco Majestic), HD Unit","PRIVATE","VAANI VALERIE A/P VISUVANATHAN;","","","",""
"","","","Pusat Hemodialisis Harmoni Hemodialisis (Cawangan Eco Majestic)No 39-1 & 39-2,Jalan Eco Majestic 9/1CEco Majestic  43500 Semenyih  Selangor Darul Ehsan  MALAYSIA","Pusat Hemodialisis Harmoni Hemodialisis (Cawangan Eco Majestic), HD Unit","03-87242238","harmonihdecomajestic@gmail.com"
"Pusat Hemodialisis Nilam (Semenyih), HD Unit","PRIVATE","FAIKAH BINTI MAHPOP;","","","",""
"","","","Pusat Hemodialisis Nilam (Semenyih) Sdn BhdNo. 60 & 62, Jalan TPS 1/7Taman Pelangi Semenyih  43500 Semenyih  Selangor Darul Ehsan  MALAYSIA","Pusat Hemodialisis Nilam (Semenyih), HD Unit","( 03)87249094","phns9094@yahoo.com"
"Pusat Perubatan Dialisis Semenyih, HD Unit","PRIVATE","SUZANA BINTI AHMAD RAMDZAN;","","","",""
"","","","Pusat Perubatan Dialisis Semenyih(Cerqofy Sdn Bhd)No. 42, Jalan TPS 1/7Taman Pelangi Semenyih  43500 Semenyih  Selangor Darul Ehsan  MALAYSIA","Pusat Perubatan Dialisis Semenyih, HD Unit","( 03)87234601","ppdsemenyih@gmail.com"
"Sepang","","","","","",""
"NSCMH Dialysis Care Cawangan Sepang, HD Unit","NGO","SASHIDARAN A/L JANISEIN;","","","",""
"","","","NSCMH Dialysis Care Cawangan SepangNo. 1, Jalan Sepang  43900 Sepang  Selangor Darul Ehsan  MALAYSIA","NSCMH Dialysis Care Cawangan Sepang, HD Unit","03-87904038","dialysissepang@gmail.com"
"Pusat Dialisis JL, HD Unit","PRIVATE","THEEPA NESAM A/L MARIAMUTU;","","","",""
"","","","Pusat Dialisis JL20-G, 22-G & 22-1 Horizon SquareJalan HVO 3, Bandar Sunsuria  43900 Sepang  Selangor Darul Ehsan  MALAYSIA","Pusat Dialisis JL, HD Unit","03-87050048","ss@jlm.asia"
"Pusat Dialisis Mukmin Salak Tinggi, HD Unit","PRIVATE","","","","",""
"","","","Pusat Dialisis Mukmin Salak TinggiNo. 34 & 35, Grd Flr, Jln 4Medan 120, Bandar Baru Salak Tinggi  43900 Sepang  Selangor Darul Ehsan  MALAYSIA","Pusat Dialisis Mukmin Salak Tinggi, HD Unit","0387066335","pdmsalaktinggi@gedungpenawar.com"
"Serdang","","","","","",""
"Hospital Sultan Abdul Aziz Shah UPM Serdang, CAPD Unit","UNIVERSITY","","","","",""
"","","","Hospital Sultan Abdul Aziz Shah UPM SerdangPersiaran Mardi UPM  43400 Serdang  Selangor Darul Ehsan  MALAYSIA","Hospital Sultan Abdul Aziz Shah UPM Serdang, CAPD Unit","03-97695845","nurulizzati@upm.edu.my"
"Hospital Pengajar UPM, MRRB Unit","UNIVERSITY","CHRISTOPHER LIM THIAM SEONG;","","","",""
"","","","Hospital Pengajar UPMHPUPM, Persiaran Mardi-UPM  43400 Serdang  Selangor Darul Ehsan  MALAYSIA","Hospital Pengajar UPM, MRRB Unit","03-97695844","tzelin@upm.edu.my"
"Seri Kembangan","","","","","",""
"Avisena Dialysis Centre Seri Kembangan, HD Unit","PRIVATE","FAIKAH BINTI MAHPOP;","","","",""
"","","","Avisena Dialysis Centre Seri Kembangan Sdn. Bhd.No. 13 & 15, Jalan Dagangan SB 4/3Taman Sg Besi Indah Seksen 4  43300 Seri Kembangan  Selangor Darul Ehsan  MALAYSIA","Avisena Dialysis Centre Seri Kembangan, HD Unit","010-5065626","serikembangan.dialysis@avisena.com.my"
"Hemodialisis Yayasan Veteran ATM (S Kembangan), HD Unit","PRIVATE","WONG FOOK SEONG;","","","",""
"","","","Hemodialisis Yayasan Veteran ATMNo. 17, Jalan Sg. Besi Indah 5/2Taman Sg. Besi Indah  43300 Seri Kembangan  Selangor Darul Ehsan  MALAYSIA","Hemodialisis Yayasan Veteran ATM (S Kembangan), HD Unit","( 03)89453494",""
"NSCMH Dialysis Care Cawangan Seri Kembangan, HD Unit","NGO","CHUA HOOI LIM;","","","",""
"","","","NSCMH Dialysis Care Cawangan Seri KembanganJalan 14/2B, Taman Serdang Utama  43300 Seri Kembangan  Selangor Darul Ehsan  MALAYSIA","NSCMH Dialysis Care Cawangan Seri Kembangan, HD Unit","03-89480712","xavierjeganathan@yahoo.com"
"Pusat Dialisis Pakar Medi-Nefron (Lestari), HD Unit","PRIVATE","","","","",""
"","","","Pusat Dialisis Pakar Medi-Nefron Sdn BhdNo. 16G, Jalan LP 1A/1Taman Lestari Perdana  43300 Seri Kembangan  Selangor Darul Ehsan  MALAYSIA","Pusat Dialisis Pakar Medi-Nefron (Lestari), HD Unit","( 03)89404489","haszilahmdsani@yahoo.com"
"Pusat Dialisis Pakar Medi-Nefron (Putra Permai), HD Unit","PRIVATE","CHRISTOPHER LIM THIAM SEONG;","","","",""
"","","","Pusat Dialisis Pakar Medi-Nefron Sdn BhdNo. 13-1 & 13-2, Jala BPP 5/1Pusat Bandar Putra Permai  43300 Seri Kembangan  Selangor Darul Ehsan  MALAYSIA","Pusat Dialisis Pakar Medi-Nefron (Putra Permai), HD Unit","( 03)89432088","haszilahmdsani@yahoo.com"
"Pusat Hemodialisis Nefrol I-Care, HD Unit","PRIVATE","GAURI A/P KRISHNAWAMY;","","","",""
"","","","Pusat Hemodialisis Nefrol I-CareNo. 35 & 35-1, Jalan BPP 8/1Bandar Putra Permai  43300 Seri Kembangan  Selangor Darul Ehsan  MALAYSIA","Pusat Hemodialisis Nefrol I-Care, HD Unit","03-85592994","Ncm.serikembangan@nephro.com.my"
"SJAM-KPS Pusat Hemodialisis Serdang Raya (Station14), HD Unit","NGO","KENNETH LAI KOAH KIEN;","","","",""
"","","","SJAM-KPS Pusat Hemodialisis Serdang Raya (Station14)Dewan Masyarakat, Jalan SR 6/4Taman Serdang Raya  43300 Seri Kembangan  Selangor Darul Ehsan  MALAYSIA","SJAM-KPS Pusat Hemodialisis Serdang Raya (Station14), HD Unit","(011)62605005","st14@sjamsde.org.my"
"Shah Alam","","","","","",""
"Avisena Dialysis Centre, CAPD Unit","PRIVATE","","","","",""
"","","","Avisena Dialysis Centre Sdn BhdG-3, G-3A & G-5, G-6 & G-7, Plaza Azalea, No. 6, Persiaran Bandaraya, Seksyen 14  40000 Shah Alam  Selangor Darul Ehsan  MALAYSIA","Avisena Dialysis Centre, CAPD Unit","03-55232630","dialysis@avisena.com.my"
"Aura Renal Sdn Bhd, HD Unit","PRIVATE","ZAZALI @ ZALALI BIN OTHMAN;","","","",""
"","","","Aura Renal Sdn Bhd No 70 & 72 Jalan Badminton  13/29Tadisma Business Park, Section 13  40100 Shah Alam  Selangor Darul Ehsan  MALAYSIA","Aura Renal Sdn Bhd, HD Unit","018-3720818","aurahemodialisis@gmail.com"
"Avisena Dialysis Centre, HD Unit","PRIVATE","","","","",""
"","","","Avisena Dialysis Centre Sdn BhdG-3, G3A & G-G-5, Plaza AzaleaNo. 6, Persiaran BandarayaSeksyen 14  40000 Shah Alam  Selangor Darul Ehsan  MALAYSIA","Avisena Dialysis Centre, HD Unit","03-55232630","dialysis@avisena.com.my"
"Avisena Dialysis Setia Alam, HD Unit","PRIVATE","MAISARAH BINTI JALALONMUHALI;","","","",""
"","","","Avisena Dialysis Setia AlamC-G-08, C-G-09, C-1-09 Sunsuria Forum @ 7th AvenueNo.1, Jalan Setia Dagang AL u13/ALSetia Alam, Seksyen U13  40170 Shah Alam  Selangor Darul Ehsan  MALAYSIA","Avisena Dialysis Setia Alam, HD Unit","019-5523951","dialysis.setiaalam@avisena.com.my"
"Damansara Premier Dialysis Centre, HD Unit","PRIVATE","KENG TEE CHAU;","","","",""
"","","","No. 26-GF & 28 -GF Jalan Setia Perdana AY U13/AYBandar Setia Alam, Seksyen U13  40170 Shah Alam  Selangor Darul Ehsan  MALAYSIA","Damansara Premier Dialysis Centre, HD Unit","03-33587980","damansarapremier@gmail.com"
"Haemodialysis Unit Ara Damansara Medical Centre, HD Unit","PRIVATE","TAN LI PING;","","","",""
"","","","Haemodialysis Unit Ara Damansara Medical CentreLower Ground, Lot 2, Jalan Lapangan Terbang,Seksyen U2  40150 Shah Alam  Selangor Darul Ehsan  MALAYSIA","Haemodialysis Unit Ara Damansara Medical Centre, HD Unit","( 03)78399223  9224","aradamansara.dc@yahoo.com"
"KPJ Selangor Specialist Hospital, HD Unit","PRIVATE","SHAIKH JAFFAR B SHAIKH KONEL;","","","",""
"","","","Dialysis Renal UnitKPJ Selangor Specialist HospitalLot. 1, Jalan Singa 20/1, Seksyen 20  40300 Shah Alam  Selangor Darul Ehsan  MALAYSIA","KPJ Selangor Specialist Hospital, HD Unit","( 03)55431111  6039/6038/","haemodialysis@kpjselangor.com"
"MSU Medical Centre, HD Unit","PRIVATE","","","","",""
"","","","MSU Medical CentreNo. 4 (PT No. 1108) Persiaran Olahraga40100 Shah Alam03-55262888 1130803-55262999 11307eamdialysiscentresdnbhd@gmail.com  40100 Shah Alam  Selangor Darul Ehsan  MALAYSIA","MSU Medical Centre, HD Unit","03-55262888  11308","eamdialysiscentresdnbhd@gmail.com"
"Pusat Dialisis Aiman Shah Alam, HD Unit","PRIVATE","ZAIDI B HJ. OMAR @ MAHDA;","","","",""
"","","","Pusat Dialisis Aiman Shah AlamNo. 51-G, Jalan Pahat K 15/KSeksyen 15, Dataran Otomobil  40200 Shah Alam  Selangor Darul Ehsan  MALAYSIA","Pusat Dialisis Aiman Shah Alam, HD Unit","( 03)55232675","drzaidimahda@gmail.com"
"Pusat Dialisis Al-Ehsan, HD Unit","PRIVATE","SOEHARDY BIN ZAINUDIN;","","","",""
"","","","Pusat Dialisis Al-EhsanNo. 14, Jalan Keluli, AK7/AKTaman Perindustrian Bukit RajaSeksyen 7  40000 Shah Alam  Selangor Darul Ehsan  MALAYSIA","Pusat Dialisis Al-Ehsan, HD Unit","03-33584625","ehsan.renalcare@gmail.com"
"Pusat Dialisis An'nur Seksyen 13, HD Unit","PRIVATE","AZMAN BIN MOHD NOR;","","","",""
"","","","Pusat Dialisis Annur Seksyen 13(Saidsons Sdn Bhd)No. 7-01-01 & 7-02-01 Precint AlamiPersiaran Akuatik, Seksyen 13, Worldwide  40100 Shah Alam  Selangor Darul Ehsan  MALAYSIA","Pusat Dialisis An'nur Seksyen 13, HD Unit","( 03)55230698","azalinaessa@gmail.com"
"Pusat Dialisis MAIS (Shah Alam), HD Unit","PRIVATE","HIJRASYARO BINTI MOHD SALLEH;","","","",""
"","","","Pusat Dialisis MAIS Lot 2G 13-14-15-16, Gound Floor, Bangunan Wisma MAIS, Blok 2Jalan RU 3/9A, Seksyen 3  40000 Shah Alam  Selangor Darul Ehsan  MALAYSIA","Pusat Dialisis MAIS (Shah Alam), HD Unit","( 03)55120541","shahalamyide@yahoo.com"
"Pusat Dialisis MAIS Cawangan Bukit Jelutong, HD Unit","NGO","HIJRASYARO BINTI MOHD SALLEH;","","","",""
"","","","Pusat Dialisis MAIS Cawangan Bukit Jelutong(Yayasan Islam Darul Ehsan)Masjid Tengku Ampuan JemaahJalan Mimbar U8/2Bukit Jelutong  40150 Shah Alam  Selangor Darul Ehsan  MALAYSIA","Pusat Dialisis MAIS Cawangan Bukit Jelutong, HD Unit","( 03)78319761","pdmbukitjelutong@yahoo.com"
"Pusat Dialisis Perkeso (Cawangan Shah Alam), HD Unit","PRIVATE","MOHAMAD FAZNIN BIN MOHAMED TALIB;","","","",""
"","","","Pusat Dialisis Perkeso (Cawangan Shah Alam)No. 5-G, 7-G & 7-1, Jalan Dinar D U3/DTaman Subang Perdana, Seksyen U3  40150 Shah Alam  Selangor Darul Ehsan  MALAYSIA","Pusat Dialisis Perkeso (Cawangan Shah Alam), HD Unit","03-78318108","ncm.shahalam@nephro.com.my"
"Pusat Dialisis Subang, HD Unit","PRIVATE","ZAINAL ABIDIN BIN AWANG;","","","",""
"","","","Pusat Dialisis Subang(BMC Ultracare Sdn Bhd)No. 27G, Jalan Bulan BS U5/BS, Seksyen U, Bandar Pinggiran Subang  40150 Shah Alam  Selangor Darul Ehsan  MALAYSIA","Pusat Dialisis Subang, HD Unit","( 03)77342731","info@beyondmedicare.com.my"
"Pusat Hemodialisis Shah Alam, HD Unit","PRIVATE","ROSMAN BIN AB RAHMAN;","","","",""
"","","","Pusat Hemodialisis Shah AlamNo. 6, Jalan Astaka U8/LBukit Jelutong  40150 Shah Alam  Selangor Darul Ehsan  MALAYSIA","Pusat Hemodialisis Shah Alam, HD Unit","( 03)78313318","dialisisshalam@gmail.com"
"Shah Alam Hospital, HD Unit","MOH","MOHD KHAIRUL BIN MOHD KAMIL;","","","",""
"","","","Unit HaemodialysisShah Alam HospitalPersiaran Kayangan, Syksyen 7  40000 Shah Alam  Selangor Darul Ehsan  MALAYSIA","Shah Alam Hospital, HD Unit","( 03)55263000  2708 /2709",""
"SJAM-KPS Haemodialysis Centre 11 (Shah Alam), HD Unit","NGO","NG KOK PENG;","","","",""
"","","","SJAM-KPS Pusat Hemodialisis Shah AlamNo. 7 & 9, Jalan Jimat 25/87Taman Sri MudaSECTION 25  40400 Shah Alam  Selangor Darul Ehsan  MALAYSIA","SJAM-KPS Haemodialysis Centre 11 (Shah Alam), HD Unit","( 03)51219001","st11@sjamsde.org.my"
"Subang Jaya","","","","","",""
"Sunway Medical Centre Sdn Bhd, CAPD Unit","PRIVATE","","","","",""
"","","","Sunway Medical Centre Sdn BhdCAPD UnitNo. 5, Jalan Lagoon SelatanBandar Sunway  47500 Subang Jaya  Selangor Darul Ehsan  MALAYSIA","Sunway Medical Centre Sdn Bhd, CAPD Unit","03-74919191  28041","-"
"Eagles Dialysis Centre Berhad, HD Unit","NGO","CAROLINE HO MEI LI;","","","",""
"","","","Eagles Dialysis Centre BerhadNo. 11, Jalan TP6Taman Perindustrian UEP  47620 Subang Jaya  Selangor Darul Ehsan  MALAYSIA","Eagles Dialysis Centre Berhad, HD Unit","( 03)58853788","eaglesdialysis@gmail.com"
"Pusat Dialisis Indah (Subang Jaya), HD Unit","PRIVATE","GNANAGURU A/L GNANASUNDRAM;","","","",""
"","","","Pusat Dialisis Indah(Renal Expert Plt)No. 22A-G, Jalan Putra Mahkota 7/6A, Putra Heights  47650 Subang Jaya  Selangor Darul Ehsan  MALAYSIA","Pusat Dialisis Indah (Subang Jaya), HD Unit","03-51019260","renalexpert@gmail.com"
"Pusat Rawatan Dialisis Pusat Dialisis Nur Kasih Sdn Bhd (Cawangan Putra Heights), HD Unit","PRIVATE","HANAFIAH BIN BASHIRUN;","","","",""
"","","","Pusat Rawatan Dialisis Pusat Dialisis Nur Kasih Sdn Bhd (Cawangan Putra Heights)No. 29, Jalan Putra Mahkota 7/8CPutra Heights  47650 Subang Jaya  Selangor Darul Ehsan  MALAYSIA","Pusat Rawatan Dialisis Pusat Dialisis Nur Kasih Sdn Bhd (Cawangan Putra Heights), HD Unit","03-51037504","putraheightnurse@gmail.com"
"Sime Darby Medical Centre Subang Jaya, HD Unit","PRIVATE","SYAMA PRASAD A/L K C A MENON;","","","",""
"","","","Haemodialysis CentreSime Darby Medical Centre Subang Jaya No. 1, Jalan SS 12/1A  47500 Subang Jaya  Selangor Darul Ehsan  MALAYSIA","Sime Darby Medical Centre Subang Jaya, HD Unit","( 03)56391212  1594","-"
"Smartcare Dialysis Centre (Subang Jaya), HD Unit","PRIVATE","LEE WAN TIN;","","","",""
"","","","Klinik Pakar Dialisis (Smartcare Dialysis Centre)No. 52G, Jalan USJ 10/1B, UEP Subang Jaya  47620 Subang Jaya  Selangor Darul Ehsan  MALAYSIA","Smartcare Dialysis Centre (Subang Jaya), HD Unit","( 03)56337618","sc_usj@apmail.bbraun.com"
"Subang Dialysis Centre, HD Unit","PRIVATE","SHYMA DEVI A/P K RAMU;","","","",""
"","","","Subang Dialysis CentreNo. 45 & 47, Jalan SS15/5A  47500 Subang Jaya  Selangor Darul Ehsan  MALAYSIA","Subang Dialysis Centre, HD Unit","( 03)56314844","dialysis_subang23@yahoo.com"
"Sunway Medical Centre (2), HD Unit","PRIVATE","","","","",""
"","","","Haemodialysis UnitSunway Medical CentreNo. 5, Jalan Lagoon SelatanBandar Sunway  47500 Subang Jaya  Selangor Darul Ehsan  MALAYSIA","Sunway Medical Centre (2), HD Unit","( 03)74911135","krishnak@sunway.com.my"
"Sunway Medical Centre (3), HD Unit","PRIVATE","","","","",""
"","","","Sunway Medical CentreNo. 5, Jln Lagoon Selatan, Bandar Sunway  47500 Subang Jaya  Selangor Darul Ehsan  MALAYSIA","Sunway Medical Centre (3), HD Unit","(03)74919191  28042/43","krishnak@sunway.com.my"
"Sunway Medical Centre (4), HD Unit","PRIVATE","","","","",""
"","","","Sunway Medical Centre Sdn BhdLevel 16, Menara SunwayJalan Lagoon Timur, Bandar Sunway  47500 Subang Jaya  Selangor Darul Ehsan  MALAYSIA","Sunway Medical Centre (4), HD Unit","(03)74919191  28042/43","krishnak@sunway.com.my"
"Sunway Medical Centre Sdn Bhd (5), HD Unit","PRIVATE","YIAW KIAN MUN;","","","",""
"","","","Sunway Medical Centre Sdn BhdLevel 16, Menara SunwayJalan Lagoon Timur, Bandar Sunway  47500 Subang Jaya  Selangor Darul Ehsan  MALAYSIA","Sunway Medical Centre Sdn Bhd (5), HD Unit","03-74919191  11135","krishnak@sunway.com.my"
"Sunway Medical Centre Sdn Bhd (6), HD Unit","PRIVATE","LOW KWAI SIONG;","","","",""
"","","","Sunway Medical Centre Sdn Bhd (6)Bandar Sunway  47500 Subang Jaya  Selangor Darul Ehsan  MALAYSIA","Sunway Medical Centre Sdn Bhd (6), HD Unit","03-74919191  28041","krishnak@sunway.com.my"
"Sunway Medical Centre Sdn Bhd (7), HD Unit","PRIVATE","","","","",""
"","","","Sunway Medical Centre Sdn Bhd (7)Tower C, No. 5, Jalan Lagoon SelatanBandar Sunway  47500 Subang Jaya  Selangor Darul Ehsan  MALAYSIA","Sunway Medical Centre Sdn Bhd (7), HD Unit","03-74919191  28043",""
"Sunway Medical Centre Sdn Bhd (8), HD Unit","PRIVATE","","","","",""
"","","","Sunway Medical Centre Sdn Bhd (8)No. 5, Jalan Lagoon SelatanBandar Sunway  47500 Subang Jaya  Selangor Darul Ehsan  MALAYSIA","Sunway Medical Centre Sdn Bhd (8), HD Unit","03-74919191  11037/38",""
"Sime Darby Medical Centre Subang Jaya, Tx Unit","PRIVATE","SYAMA PRASAD A/L K C A MENON;","","","",""
"","","","Renal Transplant Clinic (c/o Dr. Prasad Clinic)Sime Darby Medical Centre Subang Jaya Sdn BhdNo. 1, Jalan SS 12/1A  47500 Subang Jaya  Selangor Darul Ehsan  MALAYSIA","Sime Darby Medical Centre Subang Jaya, Tx Unit","( 03)56391212  469",""
"Sunway Medical Centre, TX Unit","PRIVATE","SEOW VEI  KEN;","","","",""
"","","","Sunway Medical CentreNo. 5, Jln Lagoon Selatan, Bandar Sunway  47500 Subang Jaya  Selangor Darul Ehsan  MALAYSIA","Sunway Medical Centre, TX Unit","(03)74919191","krishnak@sunway.com.my"
"Sungai Besar","","","","","",""
"Pusat Dialisis Davita Sungai Besar, HD Unit","PRIVATE","KOH CHOON HE;","","","",""
"","","","Pusat Dialisis Davita Sungai BesarNo. 4 & 5, Jln Gemilang 1Tmn Gemilang  45300 Sungai Besar  Selangor Darul Ehsan  MALAYSIA","Pusat Dialisis Davita Sungai Besar, HD Unit","0162267671","cdcbe1@gmail.com"
"Pusat Dialisis MAIS Cawangan Sungai Besar, HD Unit","PRIVATE","NOR HAYATI BINTI MD ARIS;","","","",""
"","","","Pusat Dialisis MAIS Cawangan Sungai Besar(Yayasan Islam Darul Ehsan)No. 17 & 19, Jalan Perwira 2Taman Perwira  45300 Sungai Besar  Selangor Darul Ehsan  MALAYSIA","Pusat Dialisis MAIS Cawangan Sungai Besar, HD Unit","( 03)32241262","sungaibesaryide@yahoo.com"
"Pusat Dialisis Nephrocare Global (Cawangan Sungai Besar), HD Unit","PRIVATE","MOHAMAD SALLEHIN BIN HJ ABU BAKAR;","","","",""
"","","","Pusat Dialisis Nephrocare Global (Cawangan Sungai Besar)No. 1, 3, 5 Dan & Aras BawahMutiara Niaga Sungai BesarJalan MNSB 2  45300 Sungai Besar  Selangor Darul Ehsan  MALAYSIA","Pusat Dialisis Nephrocare Global (Cawangan Sungai Besar), HD Unit","03-32246348",""
"Sungai Buloh","","","","","",""
"Pusat Perubatan Universiti Teknologi Mara, CAPD Unit","UNIVERSITY","MUHAMMAD IQBAL BIN ABDUL HAFIDZ;","","","",""
"","","","Pusat Perubatan Universiti Teknologi MaraSungai Buloh CampusJalan Hospital  47000 Sungai Buloh  Selangor Darul Ehsan  MALAYSIA","Pusat Perubatan Universiti Teknologi Mara, CAPD Unit","03-61265280",""
"Bahiah Dialysis Centre, HD Unit","PRIVATE","BAHIAH BINTI BAHARUDIN;","","","",""
"","","","Bahiah Dialysis Centre Sdn BhdNo. 18-20, Jalan Bidara 6/3Saujana Utama3  47000 Sungai Buloh  Selangor Darul Ehsan  MALAYSIA","Bahiah Dialysis Centre, HD Unit","( 03)61284551",""
"Nefrocare Heamodialysis, HD Unit","PRIVATE","LIM LI HAN;","","","",""
"","","","Nefrocare Heamodialysis23, Jalan BSC 2B/1,Bandar Seri Coalfields  47000 Sungai Buloh  Selangor Darul Ehsan  MALAYSIA","Nefrocare Heamodialysis, HD Unit","(03)67340795","nefrocareheamodialysis@gmail.com"
"Pusat Dialisis Indah (Sungai Buloh), HD Unit","PRIVATE","CHANDRIGA A/P MARIMUTHU;","","","",""
"","","","No. 21, 23 & 25, Jalan BSC 2C/4Precint 2C, Bandar Seri Coalfields  47000 Sungai Buloh  Selangor Darul Ehsan  MALAYSIA","Pusat Dialisis Indah (Sungai Buloh), HD Unit","03-60876017",""
"Pusat Dialisis Mukmin Sungai Buloh, HD Unit","PRIVATE","KALAICHELVAN A/L BATUMALAI;","","","",""
"","","","Pusat Dialisis Mukmin Sungai Buloh(Gedung Penawar Sdn Bhd)No. 49, 49A & 51, Jalan BRP 1/4Bukit Rahman Putra  47000 Sungai Buloh  Selangor Darul Ehsan  MALAYSIA","Pusat Dialisis Mukmin Sungai Buloh, HD Unit","( 03)61488085","pdmsgbuloh@gedungpenawar.com"
"Pusat Dialysis Mesra (Rahman Putra), HD Unit","PRIVATE","RAMAKRISHNAN A/L SENKODAN;","","","",""
"","","","Pusta Dialysis Mesra Bukit Rahman Putra(Pusat Dialysis Mesra Sdn Bhd)No. 23, Jalan BRP1/3Bukit Rahman Putra  47000 Sungai Buloh  Selangor Darul Ehsan  MALAYSIA","Pusat Dialysis Mesra (Rahman Putra), HD Unit","( 03)61574047","-"
"Pusat Perubatan Universiti Teknologi Mara, HD Unit","UNIVERSITY","MUHAMMAD IQBAL BIN ABDUL HAFIDZ;","","","",""
"","","","PUSAT PAKAR PERUBATAN UITMKAMPUS SUNGAI BULOHJALAN HOSPITAL  47000 Sungai Buloh  Selangor Darul Ehsan  MALAYSIA","Pusat Perubatan Universiti Teknologi Mara, HD Unit","03-61265280","-"
"Pusat Rawatan Dialisis AZ Yusra Dialysis Sdn Bhd (Sg. Buloh), HD Unit","PRIVATE","FAIZATUL AZIMAH BINTI ABDULLAH;","","","",""
"","","","Pusat Rawatan Dialisis AZ Yusra Dialysis Sdn Bhd (Sg. Buloh)No. 95-G, Jalan Nautika B U20/BPusat Komersil TSB, Seksyen U20Shah Alam  40160 Sungai Buloh  Selangor Darul Ehsan  MALAYSIA","Pusat Rawatan Dialisis AZ Yusra Dialysis Sdn Bhd (Sg. Buloh), HD Unit","03-61434371","az.yusra.dialysis.sgb@gmail.com"
"Sungai Buloh Hospital, HD Unit","MOH","","","","",""
"","","","Haemodialysis UnitHospital Sungai BulohJalan Hospital  47000 Sungai Buloh  Selangor Darul Ehsan  MALAYSIA","Sungai Buloh Hospital, HD Unit","( 03)61454333  4146 /4154","amatnije08@yahoo.com"
"Pusat Perubatan Universiti Teknologi Mara, MRRB Unit","UNIVERSITY","MUHAMMAD IQBAL BIN ABDUL HAFIDZ;","","","",""
"","","","Pusat Perubatan Universiti Teknologi MaraSungai Buloh CampusJalan Hospital  47000 Sungai Buloh  Selangor Darul Ehsan  MALAYSIA","Pusat Perubatan Universiti Teknologi Mara, MRRB Unit","( 03)61265000  5280",""
"Sungai Buloh Hospital, MRRB Unit","MOH","JEEVITA SUPAYAH;","","","",""
"","","","Sungai Buloh HospitalUnit DialisisJalan Hospital  47000 Sungai Buloh  Selangor Darul Ehsan  MALAYSIA","Sungai Buloh Hospital, MRRB Unit","03-61454333  4146/4150","hsgbuloh@gov.com.my"
"Sungai Pelek","","","","","",""
"Pusat Hemodialisis Harmoni Hemodialisis (Cawangan Sungai Pelek), HD Unit","PRIVATE","SREETHARAN A/L MUTHUSAMY;","","","",""
"","","","Pusat Hemodialisis Harmoni Hemodialisis (Cawangan Sungai Pelek)No.39-G, 41-G, F Jalan Tenteram 1Taman Tenteram  43950 Sungai Pelek  Selangor Darul Ehsan  MALAYSIA","Pusat Hemodialisis Harmoni Hemodialisis (Cawangan Sungai Pelek), HD Unit","018-4617723","harmonihdsgpelekadm@gmail.com"
"Tanjung Karang","","","","","",""
"Pusat Dialisis Davita Tanjung Karang, HD Unit","PRIVATE","TAN SONG CHOOI;","","","",""
"","","","Pusat Dialisis Davita Tanjung KarangNo.20, Lorong Bahagia DuaJalan Sungai Kajang  45500 Tanjung Karang  Selangor Darul Ehsan  MALAYSIA","Pusat Dialisis Davita Tanjung Karang, HD Unit","016-2267687","Nursyakirah.Ramli@davita.com"
"Pusat Dialisis Nephrocare Global (Cawangan Tanjung Karang), HD Unit","PRIVATE","","","","",""
"","","","Pusat Dialisis Nephrocare Global (Cawangan Tanjung Karang)No.39, 41 & 41-1, Jalan Makmur 1Taman Makmur  45500 Tanjung Karang  Selangor Darul Ehsan  MALAYSIA","Pusat Dialisis Nephrocare Global (Cawangan Tanjung Karang), HD Unit","03-32698231",""
"Tanjung Karang Hospital, HD Unit","MOH","TARMESSRI A/P RAMACHANDRAN;","","","",""
"","","","Haemodialysis Unit Tanjung Karang HospitalPekan Tanjong Karang  45500 Tanjung Karang  Selangor Darul Ehsan  MALAYSIA","Tanjung Karang Hospital, HD Unit","03-32682000","hduhtk@gmail.com"
"Telok Panglima Garang","","","","","",""
"Pusat Dialisis Mukmin Telok Panglima Garang, HD Unit","PRIVATE","ZAINAL ABIDIN BIN AWANG;","","","",""
"","","","Pusat Dialisis Mukmin Telok Panglima Garang(Gedung Penawar Sdn Bhd)No. 3 & 5, Jalan Amal 13Taman Halijahton  42500 Telok Panglima Garang  Selangor Darul Ehsan  MALAYSIA","Pusat Dialisis Mukmin Telok Panglima Garang, HD Unit","(012)3020779","pdmtpg@gedungpenawar.com"
"Teluk Panglima Garang","","","","","",""
"Pusat Dialisis Sijangkang, HD Unit","PRIVATE","SHAIKH JAFFAR B SHAIKH KONEL;","","","",""
"","","","Pusat Dialisis Sijangkang Sdn BhdNo. 22 & 24, Jalan Desa 2Taman Desa Sijangkang  42500 Teluk Panglima Garang  Selangor Darul Ehsan  MALAYSIA","Pusat Dialisis Sijangkang, HD Unit","( 03)31220595","mas_pds03@yahoo.com"
"Ulu Kelang","","","","","",""
"Pusat Dialisis MAIS (Melawati), HD Unit","PRIVATE","GANESHWARAN A/L K. MUTHUSAMY;","","","",""
"","","","MAIS Dialisis Sdn Bhd (Yayasan Islam Darul Ehsan)No. 336-337, Lorong SerawakTaman Melawati Urban 1Pusat Bandar Melawati  53100 Ulu Kelang  Selangor Darul Ehsan  MALAYSIA","Pusat Dialisis MAIS (Melawati), HD Unit","( 03)41088361","tamanmelawatiyide@gmail.com"